Geography,Retailer Store Number,Banner Name,TDLinx,Speedway Store ID ,Street Address,City,State Code,County,ZIP Code,Latitude,Longitude,DXID
45580 23 NEW GARVER ROAD MONROE OH 45050,45580,Speedway ,903395,9383,23 NEW GARVER ROAD       ,MONROE,OH,BUTLER                ,45050,39.44119,-84.3415,999QRPV
45247 10291 MIAMISBURG SPRINGBO MIAMISBURG OH 45342,45247,Speedway ,7240477,1232,10291 MIAMISBURG SPRINGBO,MIAMISBURG,OH,MONTGOMERY            ,45342,39.5972,-84.2478,99CK3UY
45489 3730 SPEEDWAY DRIVE FINDLAY OH 45840,45489,Speedway ,1855859,8502,3730 SPEEDWAY DRIVE      ,FINDLAY,OH,HANCOCK               ,45840,41.08704,-83.65737,99AWJTT
45359 1500 REYNOLDS ROAD MAUMEE OH 43537,45359,Speedway ,670646,3683,1500 REYNOLDS ROAD       ,MAUMEE,OH,LUCAS                 ,43537,41.5858,-83.6645,999X0FR
45445 6501 MILLER LANE DAYTON OH 45414,45445,Speedway ,1872424,6219,6501 MILLER LANE         ,DAYTON,OH,MONTGOMERY            ,45414,39.84229,-84.19292,99AIIRA
45263 705 CORWIN NIXON BLVD SOUTH LEBANON OH 45065,45263,Speedway ,7413436,1829,705 CORWIN NIXON BLVD    ,SOUTH LEBANON,OH,WARREN                ,45065,39.3788,-84.224,99CS5HJ
45469 11584 ALLEN RD NW OCTA OH 43160,45469,Speedway ,7310231,7611,11584 ALLEN RD NW        ,OCTA,OH,FAYETTE               ,43160,39.61713,-83.60538,99CNL5N
45566 10270 COLERAIN AVENUE CINCINNATI OH 45251,45566,Speedway ,702368,9336,10270 COLERAIN AVENUE    ,CINCINNATI,OH,HAMILTON              ,45251,39.2619,-84.6032,99AJT86
45295 1488 AUSTIN ROAD CENTERVILLE OH 45458,45295,Speedway ,1638326,3401,1488 AUSTIN ROAD         ,CENTERVILLE,OH,MONTGOMERY            ,45458,39.59492,-84.20113,99APZ4K
45181 64279 WINTERGREEN RD LORE CITY OH 43755,45181,Speedway ,7265490,1017,64279 WINTERGREEN RD     ,LORE CITY,OH,GUERNSEY              ,43755,40.0311,-81.44917,99CKSNJ
45492 90 N XENIA DR ENON OH 45323,45492,Speedway ,974868,8574,90 N XENIA DR            ,ENON,OH,CLARK                 ,45323,39.879,-83.9365,999QP6Z
45405 213 NORTH URBANA STREET SOUTH VIENNA OH 45369,45405,Speedway ,445921,5215,213 NORTH URBANA STREET  ,SOUTH VIENNA,OH,CLARK                 ,45369,39.93045,-83.61277,999HYY9
45471 2381 US HIGHWAY 23 N DELAWARE OH 43015,45471,Speedway ,7507268,7775,2381 US HIGHWAY 23 N     ,DELAWARE,OH,DELAWARE              ,43015,40.33291,-83.07459,99CXXH5
45547 2567 WALCUTT ROAD COLUMBUS OH 43026,45547,Speedway ,702361,9265,2567 WALCUTT ROAD        ,COLUMBUS,OH,FRANKLIN              ,43026,40.00363,-83.13919,999QR9Y
45526 175 SOUTH MULBERRY STREET LOGAN OH 43138,45526,Speedway ,322599,9186,175 SOUTH MULBERRY STREET,LOGAN,OH,HOCKING               ,43138,39.5381,-82.4073,999BPH4
45418 8023 SPRINGBORO PIKE MIAMISBURG OH 45342,45418,Speedway ,7375472,5259,8023 SPRINGBORO PIKE     ,MIAMISBURG,OH,MONTGOMERY            ,45342,39.6356,-84.2256,999QT1H
45368 990 EAST BROAD STREET ELYRIA OH 44035,45368,Speedway ,218178,3698,990 EAST BROAD STREET    ,ELYRIA,OH,LORAIN                ,44035,41.3647,-82.0781,99B1N3H
45426 752 TRENTON AVENUE FINDLAY OH 45840,45426,Speedway ,652391,5282,752 TRENTON AVENUE       ,FINDLAY,OH,HANCOCK               ,45840,41.0595,-83.66397,99ASK9E
45386 319 NORTH MAIN STREET NEW CARLISLE OH 45344,45386,Speedway ,445249,5073,319 NORTH MAIN STREET    ,NEW CARLISLE,OH,CLARK                 ,45344,39.9404,-84.025,99ASO10
45207 3991 INDIAN RIPPLE ROAD BEAVERCREEK OH 45440,45207,Speedway ,177655,1154,3991 INDIAN RIPPLE ROAD  ,BEAVERCREEK,OH,GREENE                ,45440,39.6948,-84.0847,999QSPM
45245 2423 KINGS MILLS ROAD MASON OH 45040,45245,Speedway ,445225,1224,2423 KINGS MILLS ROAD    ,MASON,OH,WARREN                ,45040,39.35707,-84.26067,999BPUJ
45484 8134 TROY PIKE HUBER HEIGHTS OH 45424,45484,Speedway ,445187,8241,8134 TROY PIKE           ,HUBER HEIGHTS,OH,MONTGOMERY            ,45424,39.8724,-84.1371,99AYAA5
45497 2502 WEST ALEXIS ROAD TOLEDO OH 43613,45497,Speedway ,1595333,8610,2502 WEST ALEXIS ROAD    ,TOLEDO,OH,LUCAS                 ,43613,41.7216,-83.6053,99C1G8N
45464 1835 RECREATION LANE AVON OH 44011,45464,Speedway ,7693674,7236,1835 RECREATION LANE     ,AVON,OH,LORAIN                ,44011,41.46385,-82.05793,99D4T83
45250 1529 MICHIGAN STREET SIDNEY OH 45365,45250,Speedway ,445918,1261,1529 MICHIGAN STREET     ,SIDNEY,OH,SHELBY                ,45365,40.28742,-84.17948,999X210
45599 3201 VALLEY STREET DAYTON OH 45424,45599,Speedway ,272842,9605,3201 VALLEY STREET       ,DAYTON,OH,MONTGOMERY            ,45424,39.79848,-84.12892,99B55F0
45432 2254 NORTH FAIRFIELD ROAD BEAVERCREEK OH 45431,45432,Speedway ,515191,5332,2254 NORTH FAIRFIELD ROAD,BEAVERCREEK,OH,GREENE                ,45431,39.75505,-84.05349,999QQDE
45182 1147 NORTH LIMESTONE ST SPRINGFIELD OH 45503,45182,Speedway ,445961,1025,1147 NORTH LIMESTONE ST  ,SPRINGFIELD,OH,CLARK                 ,45503,39.93814,-83.80625,99AQOB5
45584 3825 SOUTHWAY STREET SW CANTON OH 44706,45584,Speedway ,442720,9400,3825 SOUTHWAY STREET SW  ,CANTON,OH,STARK                 ,44706,40.78149,-81.41996,999X2ZW
45243 4320 ROOSEVELT BOULEVARD MIDDLETOWN OH 45044,45243,Speedway ,445236,1218,4320 ROOSEVELT BOULEVARD ,MIDDLETOWN,OH,BUTLER                ,45044,39.499,-84.3563,999BPN6
45312 7837 EAST LINCOLN HIGHWAY LIMA OH 45801,45312,Speedway ,442658,3547,7837 EAST LINCOLN HIGHWAY,LIMA,OH,ALLEN                 ,45801,40.83371,-83.95772,999MYV1
45461 8645 WATERVILLE SWANTON WATERVILLE OH 43566,45461,Speedway ,7310242,6395,8645 WATERVILLE SWANTON  ,WATERVILLE,OH,LUCAS                 ,43566,41.50613,-83.74797,99CN0LO
45589 2857 RIVER ROAD CINCINNATI OH 45204,45589,Speedway ,194459,9574,2857 RIVER ROAD          ,CINCINNATI,OH,HAMILTON              ,45204,39.0893,-84.5645,99APQMJ
45578 9738 PRINCETON GLENDALE CINCINNATI OH 45246,45578,Speedway ,803054,9367,9738 PRINCETON GLENDALE  ,CINCINNATI,OH,HAMILTON              ,45246,39.3146,-84.46392,999QP7Z
45401 2232 NEEDMORE ROAD DAYTON OH 45414,45401,Speedway ,442795,5169,2232 NEEDMORE ROAD       ,DAYTON,OH,MONTGOMERY            ,45414,39.81958,-84.19222,99APPM1
45267 11141 SANDUSKY STREET PERRYSBURG OH 43551,45267,Speedway ,592257,2866,11141 SANDUSKY STREET    ,PERRYSBURG,OH,WOOD                  ,43551,41.5511,-83.6061,999QRCH
45177 731 NORTH MAIN STREET URBANA OH 43078,45177,Speedway ,202174,1001,731 NORTH MAIN STREET    ,URBANA,OH,CHAMPAIGN             ,43078,40.116,-83.751,999BPMP
45423 595 ANDERSON FERRY ROAD CINCINNATI OH 45238,45423,Speedway ,442750,5268,595 ANDERSON FERRY ROAD  ,CINCINNATI,OH,HAMILTON              ,45238,39.1035,-84.6175,999HYT3
45329 800 BELLEFONTAINE AVENUE MARION OH 43302,45329,Speedway ,218128,3619,800 BELLEFONTAINE AVENUE ,MARION,OH,MARION                ,43302,40.5743,-83.14364,999X256
45625 2401 GALLIA STREET PORTSMOUTH OH 45662,45625,Speedway ,65768,9747,2401 GALLIA STREET       ,PORTSMOUTH,OH,SCIOTO                ,45662,38.7396,-82.9684,999A6ZM
45638 104 WADSWORTH RD ORRVILLE OH 44667,45638,Speedway ,7892368,1052,76 WADSWORTH RD-PARCEL 1 ,ORRVILLE,OH,WAYNE                 ,44667,40.79787,-81.76571,99DAKWN
45494 6700 SYLVANIA AVENUE SYLVANIA OH 43560,45494,Speedway ,593582,8594,6700 SYLVANIA AVENUE     ,SYLVANIA,OH,LUCAS                 ,43560,41.6902,-83.7038,9999MY0
45604 830 EAST NATIONAL ROAD VANDALIA OH 45377,45604,Speedway ,272854,9616,830 EAST NATIONAL ROAD   ,VANDALIA,OH,MONTGOMERY            ,45377,39.8917,-84.183,99ABXAV
45335 4261 STATE ROUTE 43 KENT OH 44240,45335,Speedway ,151427,3632,4261 STATE ROUTE 43      ,KENT,OH,PORTAGE               ,44240,41.10569,-81.34779,999BPO3
45413 711 SOUTH MAIN STREET ENGLEWOOD OH 45322,45413,Speedway ,445096,5241,711 SOUTH MAIN STREET    ,ENGLEWOOD,OH,MONTGOMERY            ,45322,39.8675,-84.2909,9999N6H
45186 200 SOUTH MAIN STREET FRANKLIN OH 45005,45186,Speedway ,445149,1033,200 SOUTH MAIN STREET    ,FRANKLIN,OH,WARREN                ,45005,39.5615,-84.3024,
45297 8350 CINCINNATI DAYTON RD WEST CHESTER OH 45069,45297,Speedway ,1579585,3405,8350 CINCINNATI DAYTON RD,WEST CHESTER,OH,BUTLER                ,45069,39.344,-84.3956,999M38M
45248 4775 CORNELL ROAD BLUE ASH OH 45241,45248,Speedway ,515194,1259,4775 CORNELL ROAD        ,BLUE ASH,OH,HAMILTON              ,45241,39.2698,-84.3739,999QQ3S
45420 2172 ARLINGTON AVENUE TOLEDO OH 43609,45420,Speedway ,445988,5264,2172 ARLINGTON AVENUE    ,TOLEDO,OH,LUCAS                 ,43609,41.6234,-83.596,999BPLO
45410 2995 SAINT JOHNS ROAD LIMA OH 45804,45410,Speedway ,445207,5236,2995 SAINT JOHNS ROAD    ,LIMA,OH,ALLEN                 ,45804,40.6979,-84.08915,999QRE9
45542 801 2ND AVE GALLIPOLIS OH 45631,45542,Speedway ,65728,9241,801 2ND AVE              ,GALLIPOLIS,OH,GALLIA                ,45631,38.8132,-82.1969,9999MY4
45436 9369 MENTOR AVENUE MENTOR OH 44060,45436,Speedway ,177474,5402,9369 MENTOR AVENUE       ,MENTOR,OH,LAKE                  ,44060,41.67945,-81.30406,999QSWK
45617 3601 COLUMBIA PARKWAY CINCINNATI OH 45226,45617,Speedway ,980831,9707,3601 COLUMBIA PARKWAY    ,CINCINNATI,OH,HAMILTON              ,45226,39.1149,-84.4362,999QP7T
45619 5495 WILMINGTON PIKE CENTERVILLE OH 45440,45619,Speedway ,519239,9726,5495 WILMINGTON PIKE     ,CENTERVILLE,OH,MONTGOMERY            ,45440,39.6608,-84.1094,999BPHF
45576 121 EAST STEWART STREET DAYTON OH 45409,45576,Speedway ,702364,9365,121 EAST STEWART STREET  ,DAYTON,OH,MONTGOMERY            ,45409,39.7409,-84.1833,999BPL7
45180 405 SOUTH BURNETT ROAD SPRINGFIELD OH 45505,45180,Speedway ,445924,1015,405 SOUTH BURNETT ROAD   ,SPRINGFIELD,OH,CLARK                 ,45505,39.9165,-83.7704,999BPL6
45463 1501 RODEN PARK DRIVE MONROE OH 45050,45463,Speedway ,2577586,7048,1501 RODEN PARK DRIVE    ,MONROE,OH,BUTLER                ,45050,39.4407,-84.4296,99BXGEJ
45349 26020 DIXIE HIGHWAY PERRYSBURG OH 43551,45349,Speedway ,618245,3664,26020 DIXIE HIGHWAY      ,PERRYSBURG,OH,WOOD                  ,43551,41.5295,-83.6364,999X24S
45229 1875 HARDING HIGHWAY LIMA OH 45804,45229,Speedway ,445204,1195,1875 HARDING HIGHWAY     ,LIMA,OH,ALLEN                 ,45804,40.73081,-84.07133,999X3IL
45246 1895 STRINGTOWN ROAD GROVE CITY OH 43123,45246,Speedway ,235060,1231,1895 STRINGTOWN ROAD     ,GROVE CITY,OH,FRANKLIN              ,43123,39.878,-83.0534,999X3IN
45501 1241 WEST NORTH STREET SPRINGFIELD OH 45504,45501,Speedway ,1001070,8916,1241 WEST NORTH STREET   ,SPRINGFIELD,OH,CLARK                 ,45504,39.9283,-83.8312,999BPKN
45340 4210 BELMONT AVENUE YOUNGSTOWN OH 44505,45340,Speedway ,151458,3637,4210 BELMONT AVENUE      ,YOUNGSTOWN,OH,MAHONING              ,44505,41.15819,-80.66555,999X24Z
45235 329 S MAIN ST. BELLEFONTAINE OH 43311,45235,Speedway ,442661,1203,329 S MAIN ST.           ,BELLEFONTAINE,OH,LOGAN                 ,43311,40.3574,-83.7598,99AWKAM
45220 11885 HAMILTON AVENUE CINCINNATI OH 45231,45220,Speedway ,202210,1181,11885 HAMILTON AVENUE    ,CINCINNATI,OH,HAMILTON              ,45231,39.29971,-84.56358,99ASJVM
45631 508 NORTH MEMORIAL DRIVE LANCASTER OH 43130,45631,Speedway ,59822,9773,508 NORTH MEMORIAL DRIVE ,LANCASTER,OH,FAIRFIELD             ,43130,39.7192,-82.6065,99AXO4K
45596 520 SYCAMORE STREET NEW RICHMOND OH 45157,45596,Speedway ,218523,9595,520 SYCAMORE STREET      ,NEW RICHMOND,OH,CLERMONT              ,45157,38.9556,-84.2804,999FWSX
45416 1650 EAST WOOSTER STREET BOWLING GREEN OH 43402,45416,Speedway ,442706,5253,1650 EAST WOOSTER STREET ,BOWLING GREEN,OH,WOOD                  ,43402,41.3743,-83.6206,99ASO0T
45476 3501 ROOSEVELT BLVD MIDDLETOWN OH 45044,45476,Speedway ,300591,8016,3501 ROOSEVELT BLVD      ,MIDDLETOWN,OH,BUTLER                ,45044,39.50029,-84.36808,99ASK9G
45208 2996 DERR ROAD SPRINGFIELD OH 45503,45208,Speedway ,445958,1156,2996 DERR ROAD           ,SPRINGFIELD,OH,CLARK                 ,45503,39.96633,-83.78476,999QT1C
45616 3304 E. BROAD ST. COLUMBUS OH 43213,45616,Speedway ,7404062,9706,3304 E. BROAD ST.        ,COLUMBUS,OH,FRANKLIN              ,43213,39.9723,-82.9132,99CRAF4
45435 1551 COVINGTON AVENUE PIQUA OH 45356,45435,Speedway ,445860,5401,1551 COVINGTON AVENUE    ,PIQUA,OH,MIAMI                 ,45356,40.1414,-84.2663,999BPLY
45537 319 EAST STATE STREET ATHENS OH 45701,45537,Speedway ,322643,9235,319 EAST STATE STREET    ,ATHENS,OH,ATHENS                ,45701,39.3373,-82.0879,999BPGQ
45384 2920 SHROYER ROAD KETTERING OH 45419,45384,Speedway ,445190,5064,2920 SHROYER ROAD        ,KETTERING,OH,MONTGOMERY            ,45419,39.7043,-84.1621,999QR5T
45451 243 NORTH BROADWAY STREET NEW PHILADELPHIA OH 44663,45451,Speedway ,626288,6242,243 NORTH BROADWAY STREET,NEW PHILADELPHIA,OH,TUSCARAWAS            ,44663,40.49247,-81.44413,99BP8J6
45308 838 STATE ROUTE 97 WEST BELLVILLE OH 44813,45308,Speedway ,151425,3535,838 STATE ROUTE 97 WEST  ,BELLVILLE,OH,RICHLAND              ,44813,40.64773,-82.54335,999X237
45465 2227 CAMPBELL ST SANDUSKY OH 44870,45465,Speedway ,7310217,7330,2227 CAMPBELL ST         ,SANDUSKY,OH,ERIE                  ,44870,41.4332,-82.7057,99CMVMA
45290 825 WORTHINGTON WOODS BLV COLUMBUS OH 43085,45290,Speedway ,1637807,3384,825 WORTHINGTON WOODS BLV,COLUMBUS,OH,FRANKLIN              ,43085,40.1186,-82.9946,999QSVA
45609 570 OHIO PIKE CINCINNATI OH 45255,45609,Speedway ,322680,9641,570 OHIO PIKE            ,CINCINNATI,OH,HAMILTON              ,45255,39.0704,-84.303,999X3ZV
45507 6351 MIDDLEBRANCH AVE NE CANTON OH 44721,45507,Speedway ,7562975,9148,6351 MIDDLEBRANCH AVE NE ,CANTON,OH,STARK                 ,44721,40.8734,-81.3346,99DBK13
45306 34740 EUCLID AVENUE WILLOUGHBY OH 44094,45306,Speedway ,218122,3529,34740 EUCLID AVENUE      ,WILLOUGHBY,OH,LAKE                  ,44094,41.6245,-81.4407,999QT52
45244 799 ARLINGTON ROAD BROOKVILLE OH 45309,45244,Speedway ,442708,1219,799 ARLINGTON ROAD       ,BROOKVILLE,OH,MONTGOMERY            ,45309,39.84528,-84.42538,999QSTY
45546 6425 EAST BROAD STREET COLUMBUS OH 43213,45546,Speedway ,480241,9263,6425 EAST BROAD STREET   ,COLUMBUS,OH,FRANKLIN              ,43213,39.9803,-82.832,99ASK9F
45404 625 NORTHLAND BOULEVARD FOREST PARK OH 45240,45404,Speedway ,445105,5211,625 NORTHLAND BOULEVARD  ,FOREST PARK,OH,HAMILTON              ,45240,39.2812,-84.4953,999QQDI
47190 1269 OLD STATE ROUTE 74 BATAVIA OH 45103,47190,Speedway ,446289,9674,1269 OLD STATE ROUTE 74  ,BATAVIA,OH,CLERMONT              ,45103,39.0883,-84.2368,999BPHX
45510 2129 SOUTH MAIN STREET AKRON OH 44301,45510,Speedway ,272748,9155,2129 SOUTH MAIN STREET   ,AKRON,OH,SUMMIT                ,44301,41.0293,-81.5268,999QR9S
45344 1160 AKRON ROAD WADSWORTH OH 44281,45344,Speedway ,151460,3650,1160 AKRON ROAD          ,WADSWORTH,OH,MEDINA                ,44281,41.04573,-81.69057,999HZ2Q
45517 601 STATE ROUTE 7 NORTH GALLIPOLIS OH 45631,45517,Speedway ,272793,9168,601 STATE ROUTE 7 NORTH  ,GALLIPOLIS,OH,GALLIA                ,45631,38.8452,-82.1463,99D1DUA
46720 722 EAST MAIN STREET LEBANON OH 45036,46720,Speedway ,445196,5105,722 EAST MAIN STREET     ,LEBANON,OH,WARREN                ,45036,39.4324,-84.193,99AQLLK
45454 1120 CANTON ROAD NW CARROLLTON OH 44615,45454,Speedway ,935342,6245,1120 CANTON ROAD NW      ,CARROLLTON,OH,CARROLL               ,44615,40.58785,-81.09153,99BKWBH
45289 710 GRISWOLD ROAD ELYRIA OH 44035,45289,Speedway ,445094,3379,710 GRISWOLD ROAD        ,ELYRIA,OH,LORAIN                ,44035,41.4003,-82.1203,99B1N3I
47182 9251 COLERAIN AVENUE CINCINNATI OH 45251,47182,Speedway ,194499,9573,9251 COLERAIN AVENUE     ,CINCINNATI,OH,HAMILTON              ,45251,39.2393,-84.59399,99AJT86
45292 7300 DIXIE HIGHWAY FAIRFIELD OH 45014,45292,Speedway ,1989607,3389,7300 DIXIE HIGHWAY       ,FAIRFIELD,OH,BUTLER                ,45014,39.30705,-84.48606,99ASZKN
45270 11790 LEBANON ROAD SHARONVILLE OH 45241,45270,Speedway ,593328,3081,11790 LEBANON ROAD       ,SHARONVILLE,OH,HAMILTON              ,45241,39.287,-84.3965,99ABX15
45412 955 GALLOWAY ROAD GALLOWAY OH 43119,45412,Speedway ,3930831,5238,955 GALLOWAY ROAD        ,GALLOWAY,OH,FRANKLIN              ,43119,39.9322,-83.1593,99C8JHH
45291 35066 CENTER RIDGE ROAD NORTH RIDGEVILLE OH 44039,45291,Speedway ,445244,3385,35066 CENTER RIDGE ROAD  ,NORTH RIDGEVILLE,OH,LORAIN                ,44039,41.3938,-82.0072,999QP2Y
45301 3088 CREEKSIDE DRIVE HAMILTON OH 45011,45301,Speedway ,2073466,3428,3088 CREEKSIDE DRIVE     ,HAMILTON,OH,BUTLER                ,45011,39.4085,-84.5072,99B6ULP
45269 31000 VINE STREET WILLOWICK OH 44095,45269,Speedway ,225505,3060,31000 VINE STREET        ,WILLOWICK,OH,LAKE                  ,44095,41.6423,-81.4708,999QPSP
45260 238 WEST 5TH STREET DELPHOS OH 45833,45260,Speedway ,445079,1507,238 WEST 5TH STREET      ,DELPHOS,OH,ALLEN                 ,45833,40.8472,-84.342,999X30Y
45444 744 WEST 5TH AVENUE COLUMBUS OH 43212,45444,Speedway ,1489038,6202,744 WEST 5TH AVENUE      ,COLUMBUS,OH,FRANKLIN              ,43212,39.9882,-83.026,99CCDME
45608 10760 READING ROAD CINCINNATI OH 45241,45608,Speedway ,272869,9633,10760 READING ROAD       ,CINCINNATI,OH,HAMILTON              ,45241,39.26218,-84.41622,999HZNF
45474 2383 DAYTON PIKE GERMANTOWN OH 45327,45474,Speedway ,905166,8014,2383 DAYTON PIKE         ,GERMANTOWN,OH,MONTGOMERY            ,45327,39.6382,-84.3479,999EIVP
45527 590 WEST CENTRAL AVENUE DELAWARE OH 43015,45527,Speedway ,288704,9189,590 WEST CENTRAL AVENUE  ,DELAWARE,OH,DELAWARE              ,43015,40.30681,-83.08984,999QQ7L
46153 1475 WEST MARKET STREET TROY OH 45373,46153,Speedway ,3602683,3424,1475 WEST MARKET STREET  ,TROY,OH,MIAMI                 ,45373,40.02304,-84.23896,99C19JW
45540 219 EAST EMMITT AVENUE WAVERLY OH 45690,45540,Speedway ,65792,9238,219 EAST EMMITT AVENUE   ,WAVERLY,OH,PIKE                  ,45690,39.1284,-82.9835,999BPGR
45257 1721 WEST STATE STREET FREMONT OH 43420,45257,Speedway ,445152,1405,1721 WEST STATE STREET   ,FREMONT,OH,SANDUSKY              ,43420,41.3549,-83.13318,99APO7S
47239 6000 BRANDT PIKE HUBER HEIGHTS OH 45424,47239,Speedway ,480308,9903,6000 BRANDT PIKE         ,HUBER HEIGHTS,OH,MONTGOMERY            ,45424,39.8401,-84.1174,99AW4XZ
45194 5387 NORTH BEND ROAD CINCINNATI OH 45247,45194,Speedway ,442742,1086,5387 NORTH BEND ROAD     ,CINCINNATI,OH,HAMILTON              ,45247,39.1881,-84.6025,99ASKKR
45252 2510 SOUTH REYNOLDS ROAD TOLEDO OH 43614,45252,Speedway ,446074,1264,2510 SOUTH REYNOLDS ROAD ,TOLEDO,OH,LUCAS                 ,43614,41.5941,-83.665,999LB84
45586 2619 SUNSET BOULEVARD STEUBENVILLE OH 43952,45586,Speedway ,61205,9403,2619 SUNSET BOULEVARD    ,STEUBENVILLE,OH,JEFFERSON             ,43952,40.37442,-80.65052,999QP4A
45539 433 2ND STREET MARIETTA OH 45750,45539,Speedway ,65855,9237,433 2ND STREET           ,MARIETTA,OH,WASHINGTON            ,45750,39.4188,-81.4584,9999MTA
45363 4208 EAST LAKE ROAD SHEFFIELD LAKE OH 44054,45363,Speedway ,445910,3690,4208 EAST LAKE ROAD      ,SHEFFIELD LAKE,OH,LORAIN                ,44054,41.48985,-82.10989,999QR8S
45462 2215 FAIRCREST ST CANTON OH 44706,45462,Speedway ,7800126,6465,2215 FAIRCREST ST        ,CANTON,OH,STARK                 ,44706,40.75136,-81.40083,99D5414
46724 376 AGLER ROAD GAHANNA OH 43230,46724,Speedway ,445155,5118,376 AGLER ROAD           ,GAHANNA,OH,FRANKLIN              ,43230,40.0197,-82.891,999X0F4
45319 3402 WOODVILLE ROAD NORTHWOOD OH 43619,45319,Speedway ,138656,3604,3402 WOODVILLE ROAD      ,NORTHWOOD,OH,WOOD                  ,43619,41.6122,-83.4802,99ASJUH
45477 2631 W ALEX BELL RD MORAINE OH 45459,45477,Speedway ,2010673,8017,2631 W ALEX BELL RD      ,MORAINE,OH,MONTGOMERY            ,45459,39.6725,-84.2138,99CFOPI
45251 2570 COLONEL GLENN HWY FAIRBORN OH 45324,45251,Speedway ,445102,1262,2570 COLONEL GLENN HWY   ,FAIRBORN,OH,GREENE                ,45324,39.77904,-84.05168,999QRZV
45403 6007 WESTERVILLE ROAD WESTERVILLE OH 43081,45403,Speedway ,446159,5207,6007 WESTERVILLE ROAD    ,WESTERVILLE,OH,FRANKLIN              ,43081,40.0955,-82.9259,999QS3N
45249 1103 UPPER VALLEY PIKE SPRINGFIELD OH 45504,45249,Speedway ,445930,1260,1103 UPPER VALLEY PIKE   ,SPRINGFIELD,OH,CLARK                 ,45504,39.9416,-83.8564,999BPNH
45358 7966 DARROW ROAD TWINSBURG OH 44087,45358,Speedway ,177466,3682,7966 DARROW ROAD         ,TWINSBURG,OH,SUMMIT                ,44087,41.2824,-81.4414,99CKLFW
45265 2875 STELZER ROAD COLUMBUS OH 43219,45265,Speedway ,2253606,2034,2875 STELZER ROAD        ,COLUMBUS,OH,FRANKLIN              ,43219,40.03204,-82.91124,99BVAZC
45556 906 LINCOLN WAY EAST MASSILLON OH 44646,45556,Speedway ,480258,9290,906 LINCOLN WAY EAST     ,MASSILLON,OH,STARK                 ,44646,40.7996,-81.5128,99ASJRU
45198 364 EAST MAIN STREET NEWARK OH 43055,45198,Speedway ,445253,1129,364 EAST MAIN STREET     ,NEWARK,OH,LICKING               ,43055,40.0597,-82.38704,99ASLR7
46165 260 SOUTH LOCUST STREET OXFORD OH 45056,46165,Speedway ,445264,1251,260 SOUTH LOCUST STREET  ,OXFORD,OH,BUTLER                ,45056,39.507,-84.7495,999X0EU
45305 32769 WALKER ROAD AVON LAKE OH 44012,45305,Speedway ,218121,3528,32769 WALKER ROAD        ,AVON LAKE,OH,LORAIN                ,44012,41.493,-82.0195,999QS5F
45558 7155 AIRPORT HIGHWAY HOLLAND OH 43528,45558,Speedway ,547326,9299,7155 AIRPORT HIGHWAY     ,HOLLAND,OH,LUCAS                 ,43528,41.6101,-83.7125,999BPH2
45628 808 PARK AVENUE IRONTON OH 45638,45628,Speedway ,65743,9760,808 PARK AVENUE          ,IRONTON,OH,LAWRENCE              ,45638,38.5373,-82.6795,99ASO1I
45228 2150 EAST DOROTHY LANE KETTERING OH 45420,45228,Speedway ,445191,1194,2150 EAST DOROTHY LANE   ,KETTERING,OH,MONTGOMERY            ,45420,39.7026,-84.1242,999QQS5
45601 1095 EATON AVENUE HAMILTON OH 45013,45601,Speedway ,272845,9608,1095 EATON AVENUE        ,HAMILTON,OH,BUTLER                ,45013,39.4232,-84.5768,999QRAJ
45615 527 EAST STATE STREET FREMONT OH 43420,45615,Speedway ,480302,9691,527 EAST STATE STREET    ,FREMONT,OH,SANDUSKY              ,43420,41.345,-83.105,99APLPV
45563 4230 ERIE AVENUE SW MASSILLON OH 44646,45563,Speedway ,480271,9314,4230 ERIE AVENUE SW      ,MASSILLON,OH,STARK                 ,44646,40.748,-81.5168,99ASKZG
45543 414 RICHLAND AVENUE ATHENS OH 45701,45543,Speedway ,65815,9242,414 RICHLAND AVENUE      ,ATHENS,OH,ATHENS                ,45701,39.31314,-82.10337,999BPGS
45472 607 E MAIN ST ANNA OH 45302,45472,Speedway ,300570,8012,607 E MAIN ST            ,ANNA,OH,SHELBY                ,45302,40.3946,-84.16367,99BA3RA
45622 10497 US-23 LUCASVILLE OH 45648,45622,Speedway ,446312,9734,10497 US-23              ,LUCASVILLE,OH,SCIOTO                ,45648,38.8784,-82.9971,999BPHI
45414 900 SCOTT DRIVE PIQUA OH 45356,45414,Speedway ,445858,5243,900 SCOTT DRIVE          ,PIQUA,OH,MIAMI                 ,45356,40.1515,-84.2236,999QQDF
45600 657 EAST DIXIE DRIVE WEST CARROLLTON OH 45449,45600,Speedway ,272844,9607,657 EAST DIXIE DRIVE     ,WEST CARROLLTON,OH,MONTGOMERY            ,45449,39.6756,-84.2422,99CPCKA
45417 240 SOUTH HAMILTON ROAD GAHANNA OH 43230,45417,Speedway ,445154,5254,240 SOUTH HAMILTON ROAD  ,GAHANNA,OH,FRANKLIN              ,43230,40.013,-82.8668,999X0F6
45618 390 EAST EXCHANGE STREET AKRON OH 44304,45618,Speedway ,322625,9715,390 EAST EXCHANGE STREET ,AKRON,OH,SUMMIT                ,44304,41.0713,-81.5093,999QRB2
45325 5010 SECOR ROAD TOLEDO OH 43623,45325,Speedway ,446057,3613,5010 SECOR ROAD          ,TOLEDO,OH,LUCAS                 ,43623,41.7067,-83.6235,999BPNZ
45473 926 ARLINGTON RD BROOKVILLE OH 45309,45473,Speedway ,1791777,8013,926 ARLINGTON RD         ,BROOKVILLE,OH,MONTGOMERY            ,45309,39.85167,-84.42462,99CF7IP
45345 564 NORTH TRIMBLE ROAD MANSFIELD OH 44906,45345,Speedway ,151461,3652,564 NORTH TRIMBLE ROAD   ,MANSFIELD,OH,RICHLAND              ,44906,40.775,-82.5515,999QQB2
47130 3974 CLEVELAND AVENUE COLUMBUS OH 43224,47130,Speedway ,446300,9249,3974 CLEVELAND AVENUE    ,COLUMBUS,OH,FRANKLIN              ,43224,40.0504,-82.9536,999X4HY
45204 1603 HARDING HIGHWAY EAST MARION OH 43302,45204,Speedway ,445221,1146,1603 HARDING HIGHWAY EAST,MARION,OH,MARION                ,43302,40.59261,-83.08692,999X3IO
45242 1415 SOUTH MAIN STREET FINDLAY OH 45840,45242,Speedway ,445103,1217,1415 SOUTH MAIN STREET   ,FINDLAY,OH,HANCOCK               ,45840,41.0228,-83.6502,999HYMF
45191 1708 TREMAINSVILLE ROAD TOLEDO OH 43613,45191,Speedway ,446064,1070,1708 TREMAINSVILLE ROAD  ,TOLEDO,OH,LUCAS                 ,43613,41.6927,-83.5852,999QSPF
45577 4 WELLER DRIVE TIPP CITY OH 45371,45577,Speedway ,702397,9366,4 WELLER DRIVE           ,TIPP CITY,OH,MIAMI                 ,45371,39.9615,-84.1912,999BPPO
45613 6203 WOOSTER PIKE FAIRFAX OH 45227,45613,Speedway ,446408,9682,6203 WOOSTER PIKE        ,FAIRFAX,OH,HAMILTON              ,45227,39.1431,-84.3877,999HYV2
45407 179 E DAYTON YELLOW SPRS FAIRBORN OH 45324,45407,Speedway ,445098,5222,179 E DAYTON YELLOW SPRS ,FAIRBORN,OH,GREENE                ,45324,39.7902,-84.0218,99BY3RR
45240 1430 WEST LANE AVENUE UPPER ARLINGTON OH 43221,45240,Speedway ,620629,1215,1430 WEST LANE AVENUE    ,UPPER ARLINGTON,OH,FRANKLIN              ,43221,40.0073,-83.0483,999QPOW
45408 1136 EAST MAIN STREET CHILLICOTHE OH 45601,45408,Speedway ,442734,5224,1136 EAST MAIN STREET    ,CHILLICOTHE,OH,ROSS                  ,45601,39.338,-82.9497,999QQDH
45318 5160 DORR STREET TOLEDO OH 43615,45318,Speedway ,446043,3602,5160 DORR STREET         ,TOLEDO,OH,LUCAS                 ,43615,41.6535,-83.6642,99C5NA3
45509 930 BLUE AVENUE ZANESVILLE OH 43701,45509,Speedway ,272745,9153,930 BLUE AVENUE          ,ZANESVILLE,OH,MUSKINGUM             ,43701,39.94987,-82.0172,999BPOP
45397 2340 EAST WHEELING AVENUE CAMBRIDGE OH 43725,45397,Speedway ,442717,5120,2340 EAST WHEELING AVENUE,CAMBRIDGE,OH,GUERNSEY              ,43725,40.0278,-81.5667,99AVM3X
45521 1199 SMILEY RD FOREST PARK OH 45240,45521,Speedway ,1436920,9176,1199 SMILEY RD           ,FOREST PARK,OH,HAMILTON              ,45240,39.29504,-84.52347,999D7L6
45595 7300 HAMILTON AVENUE MOUNT HEALTHY OH 45231,45595,Speedway ,218534,9585,7300 HAMILTON AVENUE     ,MOUNT HEALTHY,OH,HAMILTON              ,45231,39.22793,-84.54804,99AIO0X
45350 5902 MILAN ROAD SANDUSKY OH 44870,45350,Speedway ,445900,3667,5902 MILAN ROAD          ,SANDUSKY,OH,ERIE                  ,44870,41.3987,-82.6541,999NACK
45627 3131 TUSCARAWAS STREET W CANTON OH 44708,45627,Speedway ,63864,9758,3131 TUSCARAWAS STREET W ,CANTON,OH,STARK                 ,44708,40.7986,-81.4103,999QRAT
45602 4511 PLEASANT AVENUE FAIRFIELD OH 45014,45602,Speedway ,272846,9609,4511 PLEASANT AVENUE     ,FAIRFIELD,OH,BUTLER                ,45014,39.3529,-84.5592,999QRAI
45621 1351 DELAWARE AVENUE MARION OH 43302,45621,Speedway ,272785,9733,1351 DELAWARE AVENUE     ,MARION,OH,MARION                ,43302,40.56413,-83.12034,999X4HX
45381 7881 EAST MAIN STREET REYNOLDSBURG OH 43068,45381,Speedway ,1977603,4487,7881 EAST MAIN STREET    ,REYNOLDSBURG,OH,FRANKLIN              ,43068,39.9551,-82.7872,9999MXS
45424 1922 WEST LASKEY ROAD TOLEDO OH 43613,45424,Speedway ,445990,5269,1922 WEST LASKEY ROAD    ,TOLEDO,OH,LUCAS                 ,43613,41.707,-83.5913,999QRF0
45434 720 US HIGHWAY 42 NE LONDON OH 43140,45434,Speedway ,445216,5360,720 US HIGHWAY 42 NE     ,LONDON,OH,MADISON               ,43140,39.94999,-83.38297,999QPRZ
45379 2040 NORTH BECHTLE AVENUE SPRINGFIELD OH 45504,45379,Speedway ,2177648,4131,2040 NORTH BECHTLE AVENUE,SPRINGFIELD,OH,CLARK                 ,45504,39.9518,-83.8291,99BQZ0D
45582 3450 TYLERSVILLE ROAD HAMILTON OH 45011,45582,Speedway ,1597165,9390,3450 TYLERSVILLE ROAD    ,HAMILTON,OH,BUTLER                ,45011,39.36366,-84.50523,99AWXIT
45467 1295 E 2ND ST FRANKLIN OH 45005,45467,Speedway ,1609045,7409,1295 E 2ND ST            ,FRANKLIN,OH,WARREN                ,45005,39.56396,-84.27779,99CG3GW
45620 360 MIAMISBURG CENTERVILL DAYTON OH 45459,45620,Speedway ,519240,9731,360 MIAMISBURG CENTERVILL,DAYTON,OH,MONTGOMERY            ,45459,39.6275,-84.17,999BPPQ
47129 4455 SUNSET BOULEVARD STEUBENVILLE OH 43952,47129,Speedway ,446321,9248,4455 SUNSET BOULEVARD    ,STEUBENVILLE,OH,JEFFERSON             ,43952,40.37247,-80.6833,99AILHE
45406 2691 SPRINGDALE ROAD CINCINNATI OH 45231,45406,Speedway ,442746,5218,2691 SPRINGDALE ROAD     ,CINCINNATI,OH,HAMILTON              ,45231,39.2577,-84.573,999GY6B
47193 1261 EAST CENTRAL AVENUE MIAMISBURG OH 45342,47193,Speedway ,446315,9697,1261 EAST CENTRAL AVENUE ,MIAMISBURG,OH,MONTGOMERY            ,45342,39.6407,-84.2665,99APME1
45534 1012 EAST CANAL STREET NELSONVILLE OH 45764,45534,Speedway ,322600,9224,1012 EAST CANAL STREET   ,NELSONVILLE,OH,ATHENS                ,45764,39.4503,-82.2204,999X3UU
45222 51 WEST MAIN STREET AMELIA OH 45102,45222,Speedway ,202213,1183,51 WEST MAIN STREET      ,AMELIA,OH,CLERMONT              ,45102,39.0302,-84.2204,999QSPH
45433 1367 E DAYTON YELLOW SPRS FAIRBORN OH 45324,45433,Speedway ,2599406,5333,1367 E DAYTON YELLOW SPRS,FAIRBORN,OH,GREENE                ,45324,39.7848,-83.9898,99BY3WQ
45428 1556 HUFFMAN AVENUE DAYTON OH 45403,45428,Speedway ,442790,5286,1556 HUFFMAN AVENUE      ,DAYTON,OH,MONTGOMERY            ,45403,39.7574,-84.1388,999BPLS
45495 9749 HAZELTON ETNA RD SW PATASKALA OH 43062,45495,Speedway ,1632978,8600,9749 HAZELTON ETNA RD SW ,PATASKALA,OH,LICKING               ,43062,39.9521,-82.6821,999QSV7
45552 1711 HILL ROAD NORTH PICKERINGTON OH 43147,45552,Speedway ,480248,9271,1711 HILL ROAD NORTH     ,PICKERINGTON,OH,FAIRFIELD             ,43147,39.92787,-82.78819,999BPGY
45437 461 OXFORD STATE ROAD MIDDLETOWN OH 45044,45437,Speedway ,445238,5405,461 OXFORD STATE ROAD    ,MIDDLETOWN,OH,BUTLER                ,45044,39.4812,-84.4205,9999MX7
45581 3521 HEBRON ROAD HEBRON OH 43025,45581,Speedway ,903367,9385,3521 HEBRON ROAD         ,HEBRON,OH,LICKING               ,43025,39.98022,-82.48511,999BPHL
45334 3601 LINCOLN WAY EAST MASSILLON OH 44646,45334,Speedway ,151456,3628,3601 LINCOLN WAY EAST    ,MASSILLON,OH,STARK                 ,44646,40.7943,-81.4645,999X253
45419 2001 TIFFIN AVENUE FINDLAY OH 45840,45419,Speedway ,445104,5263,2001 TIFFIN AVENUE       ,FINDLAY,OH,HANCOCK               ,45840,41.054,-83.6053,999BPLN
45409 635 EAST WEBER ROAD COLUMBUS OH 43211,45409,Speedway ,442782,5235,635 EAST WEBER ROAD      ,COLUMBUS,OH,FRANKLIN              ,43211,40.0238,-82.996,9999MX2
45535 6005 WINCHESTER ROAD CARROLL OH 43112,45535,Speedway ,322597,9226,6005 WINCHESTER ROAD     ,CARROLL,OH,FAIRFIELD             ,43112,39.7998,-82.7088,999BPH9
47191 11620 HAMILTON AVENUE CINCINNATI OH 45231,47191,Speedway ,446292,9693,11620 HAMILTON AVENUE    ,CINCINNATI,OH,HAMILTON              ,45231,39.29304,-84.56379,999LB7F
45261 5571 COLERAIN AVENUE CINCINNATI OH 45239,45261,Speedway ,593451,1547,5571 COLERAIN AVENUE     ,CINCINNATI,OH,HAMILTON              ,45239,39.1931,-84.5727,99AU2B5
45457 201 WAGNER AVENUE GREENVILLE OH 45331,45457,Speedway ,445167,6327,201 WAGNER AVENUE        ,GREENVILLE,OH,DARKE                 ,45331,40.1107,-84.6222,999QSFP
45550 290 BOWEN ROAD CANAL WINCHESTER OH 43110,45550,Speedway ,480244,9269,290 BOWEN ROAD           ,CANAL WINCHESTER,OH,FAIRFIELD             ,43110,39.8517,-82.8046,999X4HW
45411 1000 WEST MAIN STREET TIPP CITY OH 45371,45411,Speedway ,445987,5237,1000 WEST MAIN STREET    ,TIPP CITY,OH,MIAMI                 ,45371,39.9606,-84.1871,99APOQI
45538 100 NORTH 7TH STREET MARIETTA OH 45750,45538,Speedway ,65843,9236,100 NORTH 7TH STREET     ,MARIETTA,OH,WASHINGTON            ,45750,39.4157,-81.4444,999C35K
45183 3 EAST NORTH BEND ROAD CINCINNATI OH 45216,45183,Speedway ,442738,1026,3 EAST NORTH BEND ROAD   ,CINCINNATI,OH,HAMILTON              ,45216,39.19661,-84.47728,999QSPC
45284 4111 LINCOLN STREET EAST CANTON OH 44730,45284,Speedway ,1578963,3362,4111 LINCOLN STREET EAST ,CANTON,OH,STARK                 ,44730,40.7892,-81.3195,999QQBR
45605 3000 WEST ALEX BELL ROAD DAYTON OH 45449,45605,Speedway ,272867,9630,3000 WEST ALEX BELL ROAD ,DAYTON,OH,MONTGOMERY            ,45449,39.6727,-84.2221,999BPHR
45317 1127 NORTH TUSCARAWAS AVE DOVER OH 44622,45317,Speedway ,445082,3557,1127 NORTH TUSCARAWAS AVE,DOVER,OH,TUSCARAWAS            ,44622,40.52734,-81.49141,999CWPS
47135 1700 HILLIARD ROME ROAD COLUMBUS OH 43026,47135,Speedway ,519233,9298,1700 HILLIARD ROME ROAD  ,COLUMBUS,OH,FRANKLIN              ,43026,39.9858,-83.1508,99BKAL8
45554 296 COUNTY ROAD 410 SOUTH POINT OH 45680,45554,Speedway ,480256,9284,296 COUNTY ROAD 410      ,SOUTH POINT,OH,LAWRENCE              ,45680,38.4132,-82.5219,999A6ZL
45520 4162 LYNN ROAD RAVENNA OH 44266,45520,Speedway ,272824,9175,4162 LYNN ROAD           ,RAVENNA,OH,PORTAGE               ,44266,41.11089,-81.24337,999QR9L
45415 818 NORTH MARKET STREET TROY OH 45373,45415,Speedway ,446087,5249,818 NORTH MARKET STREET  ,TROY,OH,MIAMI                 ,45373,40.04952,-84.19478,999BPLK
45448 861 DOVER ROAD NORTHEAST SUGARCREEK OH 44681,45448,Speedway ,958968,6238,861 DOVER ROAD NORTHEAST ,SUGARCREEK,OH,TUSCARAWAS            ,44681,40.5086,-81.6231,99BPA78
45587 74 WEST MAIN STREET NEW LEBANON OH 45345,45587,Speedway ,65163,9560,74 WEST MAIN STREET      ,NEW LEBANON,OH,MONTGOMERY            ,45345,39.7455,-84.3875,99AQ5H9
45226 14155 AIRPORT HIGHWAY SWANTON OH 43558,45226,Speedway ,235054,1192,14155 AIRPORT HIGHWAY    ,SWANTON,OH,LUCAS                 ,43558,41.58076,-83.8801,999BPMT
45593 124 EAST GALBRAITH ROAD CINCINNATI OH 45216,45593,Speedway ,218532,9581,124 EAST GALBRAITH ROAD  ,CINCINNATI,OH,HAMILTON              ,45216,39.2124,-84.4682,999QRB6
45533 110 SOUTH BEVER STREET WOOSTER OH 44691,45533,Speedway ,322646,9219,110 SOUTH BEVER STREET   ,WOOSTER,OH,WAYNE                 ,44691,40.7985,-81.9366,999QSPU
45236 6399 REFUGEE ROAD CANAL WINCHESTER OH 43110,45236,Speedway ,3694598,1204,6399 REFUGEE ROAD        ,CANAL WINCHESTER,OH,FAIRFIELD             ,43110,39.9106,-82.8244,999NAEH
45273 26516 LORAIN ROAD NORTH OLMSTED OH 44070,45273,Speedway ,218026,3309,26516 LORAIN ROAD        ,NORTH OLMSTED,OH,CUYAHOGA              ,44070,41.419,-81.9158,99AVVGT
45606 595 WEST PLANE STREET BETHEL OH 45106,45606,Speedway ,446290,9631,595 WEST PLANE STREET    ,BETHEL,OH,CLERMONT              ,45106,38.9639,-84.0877,999K62R
45395 12184 MASON RD CINCINNATI OH 45249,45395,Speedway ,444887,5110,12184 MASON RD           ,CINCINNATI,OH,HAMILTON              ,45249,39.2923,-84.3155,99BW5EH
45212 4504 MAHONING AVENUE NW WARREN OH 44483,45212,Speedway ,446138,1163,4504 MAHONING AVENUE NW  ,WARREN,OH,TRUMBULL              ,44483,41.2824,-80.8443,999BLEW
43023 708 BOARDMAN-CANFIELD RD BOARDMAN OH 44512,43023,Speedway ,NULL,1613,708 BOARDMAN-CANFIELD RD ,BOARDMAN,OH,MAHONING              ,44512,41.02498,-80.68234,99D933N
45623 814 FARSON STREET BELPRE OH 45714,45623,Speedway ,65827,9743,814 FARSON STREET        ,BELPRE,OH,WASHINGTON            ,45714,39.2838,-81.6107,999BPHK
45466 10789 MARKET STREET NORTH LIMA OH 44452,45466,Speedway ,7552343,7391,10789 MARKET STREET      ,NORTH LIMA,OH,MAHONING              ,44452,40.96135,-80.65886,99D09UX
45393 621 OLD STATE ROUTE 74 MOUNT CARMEL OH 45244,45393,Speedway ,515202,5098,621 OLD STATE ROUTE 74   ,MOUNT CARMEL,OH,HAMILTON              ,45244,39.1045,-84.2916,99ASKKK
45202 502 CONANT STREET MAUMEE OH 43537,45202,Speedway ,445230,1140,502 CONANT STREET        ,MAUMEE,OH,LUCAS                 ,43537,41.56425,-83.65407,999BPN8
45529 1 COLUMBUS ROAD MOUNT VERNON OH 43050,45529,Speedway ,322632,9193,1 COLUMBUS ROAD          ,MOUNT VERNON,OH,KNOX                  ,43050,40.3877,-82.4865,999X22B
45201 102 WEST HIGH STREET LONDON OH 43140,45201,Speedway ,445215,1137,102 WEST HIGH STREET     ,LONDON,OH,MADISON               ,43140,39.8846,-83.4506,999QT1N
45239 5050 FULTON DRIVE NW CANTON OH 44718,45239,Speedway ,151379,1207,5050 FULTON DRIVE NW     ,CANTON,OH,STARK                 ,44718,40.849,-81.4438,999X228
45333 2132 WEST 4TH STREET ONTARIO OH 44906,45333,Speedway ,138655,3624,2132 WEST 4TH STREET     ,ONTARIO,OH,RICHLAND              ,44906,40.7726,-82.5909,999QQB9
45597 525 EAST MAIN STREET WEST UNION OH 45693,45597,Speedway ,218513,9597,525 EAST MAIN STREET     ,WEST UNION,OH,ADAMS                 ,45693,38.7944,-83.5402,999MCTM
46778 1455 BRUSH ROW ROAD WILBERFORCE OH 45384,46778,Speedway ,2259592,5839,1455 BRUSH ROW ROAD      ,WILBERFORCE,OH,GREENE                ,45384,39.713,-83.8774,99BW1DB
45548 202 MARION PIKE COAL GROVE OH 45638,45548,Speedway ,480242,9266,202 MARION PIKE          ,COAL GROVE,OH,LAWRENCE              ,45638,38.49952,-82.65175,999X4HT
45322 631 NORTH CABLE ROAD LIMA OH 45805,45322,Speedway ,218124,3609,631 NORTH CABLE ROAD     ,LIMA,OH,ALLEN                 ,45805,40.74821,-84.14736,99ABX87
45199 6385 CHAMBERSBURG ROAD HUBER HEIGHTS OH 45424,45199,Speedway ,151358,1131,6385 CHAMBERSBURG ROAD   ,HUBER HEIGHTS,OH,MONTGOMERY            ,45424,39.8471,-84.1144,999BPN1
45203 901 SOUTH MAIN STREET CENTERVILLE OH 45458,45203,Speedway ,618523,1143,901 SOUTH MAIN STREET    ,CENTERVILLE,OH,MONTGOMERY            ,45458,39.6134,-84.1607,99B1HE6
45327 5904 WEST CENTRAL AVENUE TOLEDO OH 43615,45327,Speedway ,446030,3615,5904 WEST CENTRAL AVENUE ,TOLEDO,OH,LUCAS                 ,43615,41.6766,-83.6832,999NGZQ
45209 1625 S DAYTON LAKEVIEW RD NEW CARLISLE OH 45344,45209,Speedway ,445248,1157,1625 S DAYTON LAKEVIEW RD,NEW CARLISLE,OH,CLARK                 ,45344,39.8936,-84.0476,999QP5A
45508 4901 EAST MAIN STREET COLUMBUS OH 43213,45508,Speedway ,272743,9151,4901 EAST MAIN STREET    ,COLUMBUS,OH,FRANKLIN              ,43213,39.9546,-82.8668,99ASOMY
45254 4305 WEST SYLVANIA AVENUE TOLEDO OH 43623,45254,Speedway ,620630,1401,4305 WEST SYLVANIA AVENUE,TOLEDO,OH,LUCAS                 ,43623,41.69096,-83.64519,9999MXQ
45536 1026 JACKSON PIKE GALLIPOLIS OH 45631,45536,Speedway ,446306,9232,1026 JACKSON PIKE        ,GALLIPOLIS,OH,GALLIA                ,45631,38.8429,-82.2534,99APQPP
45635 712 NORTH LEAVITT ROAD AMHERST OH 44001,45635,Speedway ,480249,9975,712 NORTH LEAVITT ROAD   ,AMHERST,OH,LORAIN                ,44001,41.41628,-82.2097,999QR99
45541 449 EAST MAIN STREET JACKSON OH 45640,45541,Speedway ,65755,9239,449 EAST MAIN STREET     ,JACKSON,OH,JACKSON               ,45640,39.0484,-82.6327,9999MY3
45354 3021 SOUTH ARLINGTON ROAD AKRON OH 44312,45354,Speedway ,151450,3673,3021 SOUTH ARLINGTON ROAD,AKRON,OH,SUMMIT                ,44312,40.9894,-81.4922,99AVNV5
46166 225 LANCASTER PIKE CIRCLEVILLE OH 43113,46166,Speedway ,177663,1402,225 LANCASTER PIKE       ,CIRCLEVILLE,OH,PICKAWAY              ,43113,39.6,-82.9294,999X3IR
45231 711 READING ROAD MASON OH 45040,45231,Speedway ,1431382,1199,711 READING ROAD         ,MASON,OH,WARREN                ,45040,39.3513,-84.3226,99BTPPO
45313 2615 NORTH WEST STREET LIMA OH 45801,45313,Speedway ,445206,3548,2615 NORTH WEST STREET   ,LIMA,OH,ALLEN                 ,45801,40.77581,-84.10913,9999MXX
45376 22251 EUCLID AVENUE EUCLID OH 44117,45376,Speedway ,1524001,4043,22251 EUCLID AVENUE      ,EUCLID,OH,CUYAHOGA              ,44117,41.5727,-81.5264,99ABXFL
45196 3901 NORTH DIXIE DRIVE DAYTON OH 45414,45196,Speedway ,442799,1091,3901 NORTH DIXIE DRIVE   ,DAYTON,OH,MONTGOMERY            ,45414,39.8017,-84.1951,999X3U2
45382 522 ERIE STREET NORTH MASSILLON OH 44646,45382,Speedway ,496989,4527,522 ERIE STREET NORTH    ,MASSILLON,OH,STARK                 ,44646,40.8008,-81.5247,99B7DCM
45193 6537 GLENWAY AVENUE CINCINNATI OH 45211,45193,Speedway ,442739,1083,6537 GLENWAY AVENUE      ,CINCINNATI,OH,HAMILTON              ,45211,39.1543,-84.6287,999QT1G
45493 333 WEST MAIN STREET XENIA OH 45385,45493,Speedway ,1579695,8584,333 WEST MAIN STREET     ,XENIA,OH,GREENE                ,45385,39.6842,-83.9356,999HYYC
45630 1103 MORSE ROAD COLUMBUS OH 43229,45630,Speedway ,60435,9770,1103 MORSE ROAD          ,COLUMBUS,OH,FRANKLIN              ,43229,40.06093,-82.99377,999BPHS
45518 5619 COLUMBUS PIKE LEWIS CENTER OH 43035,45518,Speedway ,272821,9171,5619 COLUMBUS PIKE       ,LEWIS CENTER,OH,DELAWARE              ,43035,40.2146,-83.0329,999MCWQ
45468 10915 NEW HAVEN ROAD HARRISON OH 45030,45468,Speedway ,247698,7560,10915 NEW HAVEN ROAD     ,HARRISON,OH,HAMILTON              ,45030,39.2598,-84.8004,999QSUD
45422 5000 NORTH MAIN STREET DAYTON OH 45415,45422,Speedway ,442805,5266,5000 NORTH MAIN STREET   ,DAYTON,OH,MONTGOMERY            ,45415,39.8133,-84.2275,99ASJUG
45380 7860 EAST BROAD STREET BLACKLICK OH 43004,45380,Speedway ,2577617,4275,7860 EAST BROAD STREET   ,BLACKLICK,OH,FRANKLIN              ,43004,39.9854,-82.7931,99BX8Y0
45470 2726 DOVER CENTER RD WESTLAKE OH 44145,45470,Speedway ,7029164,7690,2726 DOVER CENTER RD     ,WESTLAKE,OH,CUYAHOGA              ,44145,41.4489,-81.923,99CFZU5
45221 1802 NORTH CLINTON STREET DEFIANCE OH 43512,45221,Speedway ,202211,1182,1802 NORTH CLINTON STREET,DEFIANCE,OH,DEFIANCE              ,43512,41.3051,-84.361,999BPMN
45588 1020 EAST DOROTHY LANE KETTERING OH 45419,45588,Speedway ,446310,9565,1020 EAST DOROTHY LANE   ,KETTERING,OH,MONTGOMERY            ,45419,39.7037,-84.1489,999BPQ9
45559 2001 SHILOH SPRINGS ROAD DAYTON OH 45426,45559,Speedway ,702366,9300,2001 SHILOH SPRINGS ROAD ,DAYTON,OH,MONTGOMERY            ,45426,39.8193,-84.2742,999LCBF
45331 5230 DETROIT ROAD SHEFFIELD OH 44035,45331,Speedway ,177455,3622,5230 DETROIT ROAD        ,SHEFFIELD,OH,LORAIN                ,44035,41.4254,-82.0792,999QQBB
45385 8210 PIPPIN ROAD NORTH COLLEGE HILL OH 45239,45385,Speedway ,445242,5071,8210 PIPPIN ROAD         ,NORTH COLLEGE HILL,OH,HAMILTON              ,45239,39.2195,-84.5729,99B7GK5
45351 6601 MONROE STREET SYLVANIA OH 43560,45351,Speedway ,445982,3670,6601 MONROE STREET       ,SYLVANIA,OH,LUCAS                 ,43560,41.71531,-83.70372,999BPLE
45219 4494 KENNY ROAD COLUMBUS OH 43220,45219,Speedway ,202209,1180,4494 KENNY ROAD          ,COLUMBUS,OH,FRANKLIN              ,43220,40.0505,-83.0494,999Y9OR
45227 4240 MORSE ROAD COLUMBUS OH 43230,45227,Speedway ,235065,1193,4240 MORSE ROAD          ,COLUMBUS,OH,FRANKLIN              ,43230,40.0575,-82.8988,999BPHS
45626 5040 SOUTH WALNUT STREET SOUTH BLOOMFIELD OH 43103,45626,Speedway ,59764,9756,5040 SOUTH WALNUT STREET ,SOUTH BLOOMFIELD,OH,PICKAWAY              ,43103,39.7159,-82.9867,999M6IX
45266 2735 COLUMBUS LANCASTERNW LANCASTER OH 43130,45266,Speedway ,1637827,2356,2735 COLUMBUS LANCASTERNW,LANCASTER,OH,FAIRFIELD             ,43130,39.7466,-82.6522,999QQ6Q
45571 1224 EAST STROOP ROAD KETTERING OH 45429,45571,Speedway ,702367,9342,1224 EAST STROOP ROAD    ,KETTERING,OH,MONTGOMERY            ,45429,39.6886,-84.145,99ASNTI
45366 4401 KIRK ROAD AUSTINTOWN OH 44515,45366,Speedway ,445992,3696,4401 KIRK ROAD           ,AUSTINTOWN,OH,MAHONING              ,44515,41.0685,-80.7328,999QP6H
46163 4797 WEST BROAD STREET COLUMBUS OH 43228,46163,Speedway ,202207,1174,4797 WEST BROAD STREET   ,COLUMBUS,OH,FRANKLIN              ,43228,39.95176,-83.1288,999L9ZU
45225 595 WEST CENTRAL AVENUE SPRINGBORO OH 45066,45225,Speedway ,235053,1191,595 WEST CENTRAL AVENUE  ,SPRINGBORO,OH,WARREN                ,45066,39.56154,-84.25504,99AQOSG
45632 821 E DUBLIN GRANVILLE RD COLUMBUS OH 43229,45632,Speedway ,60469,9775,821 E DUBLIN GRANVILLE RD,COLUMBUS,OH,FRANKLIN              ,43229,40.0875,-82.9969,99B3UVY
45427 799 NORTH WILSON ROAD COLUMBUS OH 43204,45427,Speedway ,442757,5284,799 NORTH WILSON ROAD    ,COLUMBUS,OH,FRANKLIN              ,43204,39.9701,-83.0975,9999MX5
45224 1301 NORTH BARRON STREET EATON OH 45320,45224,Speedway ,235052,1190,1301 NORTH BARRON STREET ,EATON,OH,PREBLE                ,45320,39.7586,-84.6368,999QT16
45383 5161 DIXIE HIGHWAY FAIRFIELD OH 45014,45383,Speedway ,1449552,5010,5161 DIXIE HIGHWAY       ,FAIRFIELD,OH,BUTLER                ,45014,39.3392,-84.5341,99C549D
45187 1840 SOUTH LIMESTONE ST SPRINGFIELD OH 45505,45187,Speedway ,445965,1035,1840 SOUTH LIMESTONE ST  ,SPRINGFIELD,OH,CLARK                 ,45505,39.9028,-83.8106,99APG3R
45294 32760 LORAIN ROAD NORTH RIDGEVILLE OH 44039,45294,Speedway ,151418,3392,32760 LORAIN ROAD        ,NORTH RIDGEVILLE,OH,LORAIN                ,44039,41.3832,-81.9798,999QQBP
45346 3315 MAHONING ROAD NE CANTON OH 44705,45346,Speedway ,151438,3653,3315 MAHONING ROAD NE    ,CANTON,OH,STARK                 ,44705,40.8186,-81.3277,99AWKT2
45551 2775 BRICE ROAD COLUMBUS OH 43068,45551,Speedway ,480245,9270,2775 BRICE ROAD          ,COLUMBUS,OH,FRANKLIN              ,43068,39.923,-82.8307,
45440 1459 NORTH HIGH STREET HILLSBORO OH 45133,45440,Speedway ,515197,5413,1459 NORTH HIGH STREET   ,HILLSBORO,OH,HIGHLAND              ,45133,39.2287,-83.6108,999BPM3
45303 11044 KINSMAN ROAD NEWBURY OH 44065,45303,Speedway ,218097,3512,11044 KINSMAN ROAD       ,NEWBURY,OH,GEAUGA                ,44065,41.4634,-81.2446,999QPS1
45479 987 W STATE ST TRENTON OH 45067,45479,Speedway ,938260,8019,987 W STATE ST           ,TRENTON,OH,BUTLER                ,45067,39.4805,-84.4767,99CF7SB
45528 1394 ASHLAND ROAD MANSFIELD OH 44905,45528,Speedway ,322645,9190,1394 ASHLAND ROAD        ,MANSFIELD,OH,RICHLAND              ,44905,40.7831,-82.4632,999QSPW
45522 2026 BAILEY ROAD CUYAHOGA FALLS OH 44221,45522,Speedway ,446302,9178,2026 BAILEY ROAD         ,CUYAHOGA FALLS,OH,SUMMIT                ,44221,41.1338,-81.4671,9999MYA
45634 1298 WEST HUNTER STREET LOGAN OH 43138,45634,Speedway ,322601,9925,1298 WEST HUNTER STREET  ,LOGAN,OH,HOCKING               ,43138,39.5436,-82.4267,999BPHZ
45189 3760 MAIN STREET HILLIARD OH 43026,45189,Speedway ,202175,1041,3760 MAIN STREET         ,HILLIARD,OH,FRANKLIN              ,43026,40.02808,-83.16037,999QRRH
45357 765 DARROW ROAD AKRON OH 44305,45357,Speedway ,218147,3681,765 DARROW ROAD          ,AKRON,OH,SUMMIT                ,44305,41.0844,-81.4414,999BPLM
45328 4630 ELIDA ROAD ELIDA OH 45807,45328,Speedway ,151424,3617,4630 ELIDA ROAD          ,ELIDA,OH,ALLEN                 ,45807,40.78178,-84.18872,999BPNX
45516 201 NORTH 3RD STREET STEUBENVILLE OH 43952,45516,Speedway ,247251,9167,201 NORTH 3RD STREET     ,STEUBENVILLE,OH,JEFFERSON             ,43952,40.36153,-80.61305,999QR9N
45338 3903 MOGADORE ROAD MOGADORE OH 44260,45338,Speedway ,151457,3635,3903 MOGADORE ROAD       ,MOGADORE,OH,SUMMIT                ,44260,41.0512,-81.3936,999QPTQ
45449 100 MORRIS CROSSING NEWCOMERSTOWN OH 43832,45449,Speedway ,1672572,6240,100 MORRIS CROSSING      ,NEWCOMERSTOWN,OH,TUSCARAWAS            ,43832,40.28664,-81.56759,99BWGL9
46337 1190 NORTH COURT STREET CIRCLEVILLE OH 43113,46337,Speedway ,975999,3737,1190 NORTH COURT STREET  ,CIRCLEVILLE,OH,PICKAWAY              ,43113,39.6205,-82.9398,9999MTE
45233 738 NORTH DETROIT STREET XENIA OH 45385,45233,Speedway ,151377,1201,738 NORTH DETROIT STREET ,XENIA,OH,GREENE                ,45385,39.6952,-83.9319,999QSSK
45197 1321 PARK AVENUE WEST MANSFIELD OH 44906,45197,Speedway ,151356,1099,1321 PARK AVENUE WEST    ,MANSFIELD,OH,RICHLAND              ,44906,40.759,-82.5632,999X3TP
45443 3750 W DUBLIN GRANVILLE DUBLIN OH 43017,45443,Speedway ,445083,5480,3750 W DUBLIN GRANVILLE  ,DUBLIN,OH,FRANKLIN              ,43017,40.0975,-83.0921,999QSQO
45446 4985 NAVARRE ROAD SW CANTON OH 44706,45446,Speedway ,410992,6236,4985 NAVARRE ROAD SW     ,CANTON,OH,STARK                 ,44706,40.7668,-81.4469,99BNAIM
45391 5010 OLIVE ROAD TROTWOOD OH 45426,45391,Speedway ,446082,5089,5010 OLIVE ROAD          ,TROTWOOD,OH,MONTGOMERY            ,45426,39.8188,-84.2928,999BPM1
46330 7353 NORTH AURORA ROAD AURORA OH 44202,46330,Speedway ,218188,3510,7353 NORTH AURORA ROAD   ,AURORA,OH,PORTAGE               ,44202,41.3488,-81.3794,9999MXV
45603 8378 WINTON ROAD CINCINNATI OH 45231,45603,Speedway ,272847,9610,8378 WINTON ROAD         ,CINCINNATI,OH,HAMILTON              ,45231,39.2193,-84.5178,999QRAG
45611 1350 SWEITZER STREET GREENVILLE OH 45331,45611,Speedway ,306842,9654,1350 SWEITZER STREET     ,GREENVILLE,OH,DARKE                 ,45331,40.0802,-84.6341,999QRB4
45262 3070 MORSE ROAD COLUMBUS OH 43231,45262,Speedway ,7235738,1804,3070 MORSE ROAD          ,COLUMBUS,OH,FRANKLIN              ,43231,40.0595,-82.93776,99CJ2NV
45400 1515 NORTH MAIN AVENUE SIDNEY OH 45365,45400,Speedway ,445911,5135,1515 NORTH MAIN AVENUE   ,SIDNEY,OH,SHELBY                ,45365,40.3025,-84.1557,999BPM7
45555 119 STATE ROUTE 7 PROCTORVILLE OH 45669,45555,Speedway ,702384,9286,119 STATE ROUTE 7        ,PROCTORVILLE,OH,LAWRENCE              ,45669,38.4386,-82.3851,999HZ0T
45573 3135 BROADWAY GROVE CITY OH 43123,45573,Speedway ,802687,9347,3135 BROADWAY            ,GROVE CITY,OH,FRANKLIN              ,43123,39.9,-83.0791,99ASJRK
45439 31 SOUTHEAST CATAWBA ROAD PORT CLINTON OH 43452,45439,Speedway ,1579666,5410,31 SOUTHEAST CATAWBA ROAD,PORT CLINTON,OH,OTTAWA                ,43452,41.5234,-82.8584,
45430 1894 WEST MAIN STREET TROY OH 45373,45430,Speedway ,446086,5298,1894 WEST MAIN STREET    ,TROY,OH,MIAMI                 ,45373,40.0553,-84.24,999BPLT
45285 976 SCIOTO STREET URBANA OH 43078,45285,Speedway ,904836,3368,976 SCIOTO STREET        ,URBANA,OH,CHAMPAIGN             ,43078,40.1063,-83.7276,999QR9D
45339 9 N CLEVELAND MASSILLON AKRON OH 44333,45339,Speedway ,151434,3636,9 N CLEVELAND MASSILLON  ,AKRON,OH,SUMMIT                ,44333,41.1362,-81.6371,99APCN2
45238 10 NORTH BRIDGE STREET CHILLICOTHE OH 45601,45238,Speedway ,442731,1206,10 NORTH BRIDGE STREET   ,CHILLICOTHE,OH,ROSS                  ,45601,39.3348,-82.9746,999QSSB
45389 4950 BURKHARDT ROAD RIVERSIDE OH 45431,45389,Speedway ,442798,5079,4950 BURKHARDT ROAD      ,RIVERSIDE,OH,MONTGOMERY            ,45431,39.7591,-84.1201,99ATM0E
45241 6175 EAST LIVINGSTON AVE COLUMBUS OH 43232,45241,Speedway ,442783,1216,6175 EAST LIVINGSTON AVE ,COLUMBUS,OH,FRANKLIN              ,43232,39.9416,-82.8307,999GKLR
45398 6312 EAST MAIN STREET REYNOLDSBURG OH 43068,45398,Speedway ,445878,5123,6312 EAST MAIN STREET    ,REYNOLDSBURG,OH,FRANKLIN              ,43068,39.9552,-82.8292,99AVNGM
47199 1165 SOUTH HIGH STREET COLUMBUS OH 43206,47199,Speedway ,446297,9751,1165 SOUTH HIGH STREET   ,COLUMBUS,OH,FRANKLIN              ,43206,39.9381,-82.9966,99AVNA1
45583 2122 NAVARRE ROAD SW CANTON OH 44706,45583,Speedway ,442728,9399,2122 NAVARRE ROAD SW     ,CANTON,OH,STARK                 ,44706,40.786,-81.3978,999QSQN
45478 1501 ST MARYS RD SIDNEY OH 45365,45478,Speedway ,1644653,8018,1501 ST MARYS RD         ,SIDNEY,OH,SHELBY                ,45365,40.3029,-84.1644,999BPJY
45585 175 WEST STATE STREET SALEM OH 44460,45585,Speedway ,445889,9401,175 WEST STATE STREET    ,SALEM,OH,COLUMBIANA            ,44460,40.9009,-80.8577,999QQW2
46761 30805 DETROIT ROAD WESTLAKE OH 44145,46761,Speedway ,446157,5404,30805 DETROIT ROAD       ,WESTLAKE,OH,CUYAHOGA              ,44145,41.4606,-81.9614,999QT5C
45286 5050 URBANA ROAD SPRINGFIELD OH 45502,45286,Speedway ,697096,3369,5050 URBANA ROAD         ,SPRINGFIELD,OH,CLARK                 ,45502,39.9977,-83.8004,99CB0J4
45441 8352 BEECHMONT AVENUE CINCINNATI OH 45255,45441,Speedway ,442741,5416,8352 BEECHMONT AVENUE    ,CINCINNATI,OH,HAMILTON              ,45255,39.0727,-84.3231,999QSAS
47061 596 COLUMBUS AVENUE LEBANON OH 45036,47061,Speedway ,968732,8626,596 COLUMBUS AVENUE      ,LEBANON,OH,WARREN                ,45036,39.4404,-84.196,99AQOSX
45283 38700 MENTOR AVENUE WILLOUGHBY OH 44094,45283,Speedway ,177449,3350,38700 MENTOR AVENUE      ,WILLOUGHBY,OH,LAKE                  ,44094,41.644,-81.394,999QQBS
45321 108 WEST MCPHERSON HWY CLYDE OH 43410,45321,Speedway ,138645,3606,108 WEST MCPHERSON HWY   ,CLYDE,OH,SANDUSKY              ,43410,41.3098,-82.9754,999BOMQ
47143 770 POLARIS PARKWAY LEWIS CENTER OH 43035,47143,Speedway ,903370,9376,770 POLARIS PARKWAY      ,LEWIS CENTER,OH,DELAWARE              ,43035,40.151,-82.9982,99BX7YO
45421 10270 SPRINGFIELD PIKE WOODLAWN OH 45215,45421,Speedway ,515203,5265,10270 SPRINGFIELD PIKE   ,WOODLAWN,OH,HAMILTON              ,45215,39.255,-84.4695,999QRE2
45237 3006 NOE BIXBY ROAD COLUMBUS OH 43232,45237,Speedway ,151378,1205,3006 NOE BIXBY ROAD      ,COLUMBUS,OH,FRANKLIN              ,43232,39.9151,-82.8629,999X224
45523 1470 EAST MAIN STREET LANCASTER OH 43130,45523,Speedway ,272829,9179,1470 EAST MAIN STREET    ,LANCASTER,OH,FAIRFIELD             ,43130,39.71377,-82.57285,999S0JJ
45276 1442 NORTH CASSADY AVENUE COLUMBUS OH 43219,45276,Speedway ,2206112,3323,1442 NORTH CASSADY AVENUE,COLUMBUS,OH,FRANKLIN              ,43219,40.0003,-82.9294,99BRENG
45347 8231 COLUMBIA ROAD OLMSTED FALLS OH 44138,45347,Speedway ,177458,3654,8231 COLUMBIA ROAD       ,OLMSTED FALLS,OH,CUYAHOGA              ,44138,41.3724,-81.9017,999QQB1
45184 360 SOUTH STATE STREET WESTERVILLE OH 43081,45184,Speedway ,446162,1028,360 SOUTH STATE STREET   ,WESTERVILLE,OH,FRANKLIN              ,43081,40.1165,-82.928,999QPOZ
45179 10440 LOVELAND MADEIRA RD LOVELAND OH 45140,45179,Speedway ,594459,1009,10440 LOVELAND MADEIRA RD,LOVELAND,OH,CLERMONT              ,45140,39.248,-84.2965,99C2A49
45562 3616 RIVERSIDE DRIVE COLUMBUS OH 43221,45562,Speedway ,480269,9313,3616 RIVERSIDE DRIVE     ,COLUMBUS,OH,FRANKLIN              ,43221,40.0271,-83.091,999MCTR
45178 1314 EAST MAIN STREET SPRINGFIELD OH 45503,45178,Speedway ,151353,1005,1314 EAST MAIN STREET    ,SPRINGFIELD,OH,CLARK                 ,45503,39.92402,-83.78899,999QT1P
45369 1717 LIBERTY AVENUE IRONTON OH 45638,45369,Speedway ,975891,3718,1717 LIBERTY AVENUE      ,IRONTON,OH,LAWRENCE              ,45638,38.5264,-82.6663,99AQR0L
45475 759 HEBRON RD HEATH OH 43056,45475,Speedway ,300612,8015,759 HEBRON RD            ,HEATH,OH,LICKING               ,43056,40.0312,-82.4384,99CF74C
45447 7960 CLEVELAND AVENUE NW NORTH CANTON OH 44720,45447,Speedway ,410991,6237,7960 CLEVELAND AVENUE NW ,NORTH CANTON,OH,STARK                 ,44720,40.9017,-81.4058,99AWXW3
45594 2713 WILLIAMS AVENUE CINCINNATI OH 45209,45594,Speedway ,218524,9582,2713 WILLIAMS AVENUE     ,CINCINNATI,OH,HAMILTON              ,45209,39.1521,-84.4428,999QQ7H
45514 3233 REFUGEE ROAD COLUMBUS OH 43232,45514,Speedway ,247254,9165,3233 REFUGEE ROAD        ,COLUMBUS,OH,FRANKLIN              ,43232,39.9173,-82.9151,999X4HS
47133 5984 SAWMILL ROAD DUBLIN OH 43017,47133,Speedway ,480254,9283,5984 SAWMILL ROAD        ,DUBLIN,OH,FRANKLIN              ,43017,40.0885,-83.0912,999X381
45450 11099 STATE ROUTE 212 NE BOLIVAR OH 44612,45450,Speedway ,935341,6241,11099 STATE ROUTE 212 NE ,BOLIVAR,OH,TUSCARAWAS            ,44612,40.6408,-81.4442,99B8D27
45525 400 MUSKINGUM DRIVE MARIETTA OH 45750,45525,Speedway ,288726,9185,400 MUSKINGUM DRIVE      ,MARIETTA,OH,WASHINGTON            ,45750,39.443,-81.4594,999BPH3
45549 1505 HARRISBURG PIKE COLUMBUS OH 43223,45549,Speedway ,446298,9268,1505 HARRISBURG PIKE     ,COLUMBUS,OH,FRANKLIN              ,43223,39.92708,-83.05705,999BPGW
47142 1626 WEST 5TH AVENUE COLUMBUS OH 43212,47142,Speedway ,791724,9371,1626 WEST 5TH AVENUE     ,COLUMBUS,OH,FRANKLIN              ,43212,39.98936,-83.04975,999BPHH
45607 113 NORTH MAIN STREET CENTERVILLE OH 45459,45607,Speedway ,272868,9632,113 NORTH MAIN STREET    ,CENTERVILLE,OH,MONTGOMERY            ,45459,39.6312,-84.1589,999BPPV
45565 1219 S PENNSYLVANIA AVE WELLSTON OH 45692,45565,Speedway ,702363,9335,1219 S PENNSYLVANIA AVE  ,WELLSTON,OH,JACKSON               ,45692,39.1127,-82.5346,999MHJ1
45498 1000 CHERRY VALLEY RD SE GRANVILLE OH 43055,45498,Speedway ,2080757,8640,1000 CHERRY VALLEY RD SE ,GRANVILLE,OH,LICKING               ,43055,40.0549,-82.4816,99B7A5T
45337 293 EAST MARKET STREET AKRON OH 44308,45337,Speedway ,151431,3634,293 EAST MARKET STREET   ,AKRON,OH,SUMMIT                ,44308,41.0821,-81.5081,99B22EO
45396 5657 CLEVELAND AVENUE COLUMBUS OH 43231,45396,Speedway ,442758,5117,5657 CLEVELAND AVENUE    ,COLUMBUS,OH,FRANKLIN              ,43231,40.0856,-82.9512,999QQDL
45491 895 LORAIN BOULEVARD ELYRIA OH 44035,45491,Speedway ,1471646,8556,895 LORAIN BOULEVARD     ,ELYRIA,OH,LORAIN                ,44035,41.3846,-82.1165,99B1CCT
45579 4967 PORTAGE STREET NW NORTH CANTON OH 44720,45579,Speedway ,903362,9379,4967 PORTAGE STREET NW   ,NORTH CANTON,OH,STARK                 ,44720,40.8797,-81.4407,999BPHJ
45316 5430 MONROE STREET TOLEDO OH 43623,45316,Speedway ,446067,3556,5430 MONROE STREET       ,TOLEDO,OH,LUCAS                 ,43623,41.7056,-83.6628,999BPNU
45482 600 E SANDUSKY AVE BELLEFONTAINE OH 43311,45482,Speedway ,300575,8022,600 E SANDUSKY AVE       ,BELLEFONTAINE,OH,LOGAN                 ,43311,40.36357,-83.74821,99CFNCO
45268 29201 EUCLID AVENUE WICKLIFFE OH 44092,45268,Speedway ,446180,3027,29201 EUCLID AVENUE      ,WICKLIFFE,OH,LAKE                  ,44092,41.6052,-81.47592,999QQBW
45256 131 LONDON ROAD DELAWARE OH 43015,45256,Speedway ,445022,1404,131 LONDON ROAD          ,DELAWARE,OH,DELAWARE              ,43015,40.29029,-83.07352,999QP5H
45592 735 OHIO PIKE WITHAMSVILLE OH 45245,45592,Speedway ,272798,9579,735 OHIO PIKE            ,WITHAMSVILLE,OH,CLERMONT              ,45245,39.065,-84.2861,999HYXN
45302 10769 NORTH STREET GARRETTSVILLE OH 44231,45302,Speedway ,218095,3505,10769 NORTH STREET       ,GARRETTSVILLE,OH,PORTAGE               ,44231,41.2857,-81.0988,999BPNO
45271 7340 LAKE SHORE BOULEVARD MENTOR OH 44060,45271,Speedway ,445231,3083,7340 LAKE SHORE BOULEVARD,MENTOR,OH,LAKE                  ,44060,41.7005,-81.3782,999BPMW
45480 1605 E WYANDOT AVE UPPER SANDUSKY OH 43351,45480,Speedway ,300607,8020,1605 E WYANDOT AVE       ,UPPER SANDUSKY,OH,WYANDOT               ,43351,40.8333,-83.24475,99CF748
47132 111 NORTH MAYSVILLE AVE SOUTH ZANESVILLE OH 43701,47132,Speedway ,519216,9279,111 NORTH MAYSVILLE AVE  ,SOUTH ZANESVILLE,OH,MUSKINGUM             ,43701,39.9074,-82.0182,999BPOT
45486 4830 NORTH HAMILTON ROAD COLUMBUS OH 43230,45486,Speedway ,973216,8345,4830 NORTH HAMILTON ROAD ,COLUMBUS,OH,FRANKLIN              ,43230,40.0559,-82.8634,99AOABO
45629 497 GENERAL HARTINGER PKW MIDDLEPORT OH 45760,45629,Speedway ,65858,9769,497 GENERAL HARTINGER PKW,MIDDLEPORT,OH,MEIGS                 ,45760,38.9967,-82.0558,999HZ0S
45215 900 NORTH COURT STREET MEDINA OH 44256,45215,Speedway ,151373,1168,900 NORTH COURT STREET   ,MEDINA,OH,MEDINA                ,44256,41.15164,-81.86269,999MBNY
45192 715 BROWN ROAD COLUMBUS OH 43223,45192,Speedway ,442772,1076,715 BROWN ROAD           ,COLUMBUS,OH,FRANKLIN              ,43223,39.9428,-83.0376,999QQX5
46795 8720 WAYNESBURG DRIVE SE WAYNESBURG OH 44688,46795,Speedway ,1439641,6239,8720 WAYNESBURG DRIVE SE ,WAYNESBURG,OH,STARK                 ,44688,40.6759,-81.2593,99BP8BG
45425 4232 CEMETERY ROAD HILLIARD OH 43026,45425,Speedway ,445180,5274,4232 CEMETERY ROAD       ,HILLIARD,OH,FRANKLIN              ,43026,40.0328,-83.1297,999X3CE
45524 907 SPRINGMILL STREET MANSFIELD OH 44906,45524,Speedway ,322644,9183,907 SPRINGMILL STREET    ,MANSFIELD,OH,RICHLAND              ,44906,40.7837,-82.5472,999QRB5
45315 3535 MASSILLON ROAD UNIONTOWN OH 44685,45315,Speedway ,446092,3555,3535 MASSILLON ROAD      ,UNIONTOWN,OH,SUMMIT                ,44685,40.9651,-81.4645,99ABX2T
45230 7397 TYLERSVILLE ROAD WEST CHESTER OH 45069,45230,Speedway ,446153,1197,7397 TYLERSVILLE ROAD    ,WEST CHESTER,OH,BUTLER                ,45069,39.3545,-84.3757,99AXO4I
45505 4332 HILLS & DALES RD NW CANTON OH 44708,45505,Speedway ,639209,9110,4332 HILLS & DALES RD NW ,CANTON,OH,STARK                 ,44708,40.8328,-81.4236,99CRWPO
45326 145 EAST INDIANA AVENUE PERRYSBURG OH 43551,45326,Speedway ,445266,3614,145 EAST INDIANA AVENUE  ,PERRYSBURG,OH,WOOD                  ,43551,41.5579,-83.6263,999QQBG
45488 400 NORTH SANDUSKY AVENUE BUCYRUS OH 44820,45488,Speedway ,893644,8493,400 NORTH SANDUSKY AVENUE,BUCYRUS,OH,CRAWFORD              ,44820,40.8122,-82.9752,999QS1H
45574 3611 FISHINGER BOULEVARD COLUMBUS OH 43026,45574,Speedway ,702362,9356,3611 FISHINGER BOULEVARD ,COLUMBUS,OH,FRANKLIN              ,43026,40.0271,-83.1172,999BPPK
45612 5030 BATAVIA ROAD CINCINNATI OH 45244,45612,Speedway ,322681,9659,5030 BATAVIA ROAD        ,CINCINNATI,OH,HAMILTON              ,45244,39.1109,-84.3987,99ASKKL
45564 2619 CLEVELAND AVENUE SW CANTON OH 44707,45564,Speedway ,480278,9319,2619 CLEVELAND AVENUE SW ,CANTON,OH,STARK                 ,44707,40.7691,-81.3849,999QSQ2
45570 4555 WEST BROAD STREET LINCOLN VILLAGE OH 43228,45570,Speedway ,702359,9341,4555 WEST BROAD STREET   ,LINCOLN VILLAGE,OH,FRANKLIN              ,43228,39.95201,-83.1227,99AVNA0
45502 319 SOLIDA ROAD SOUTH POINT OH 45680,45502,Speedway ,65790,9043,319 SOLIDA ROAD          ,SOUTH POINT,OH,LAWRENCE              ,45680,38.4204,-82.5808,99AYQ8A
45513 44 CANTON ROAD NORTHWEST CARROLLTON OH 44615,45513,Speedway ,247249,9162,44 CANTON ROAD NORTHWEST ,CARROLLTON,OH,CARROLL               ,44615,40.57653,-81.09261,999QR9Q
45205 264 WEST HIGH AVENUE NEW PHILADELPHIA OH 44663,45205,Speedway ,445252,1152,264 WEST HIGH AVENUE     ,NEW PHILADELPHIA,OH,TUSCARAWAS            ,44663,40.49,-81.4496,999QSTZ
45336 1275 CANTON ROAD AKRON OH 44312,45336,Speedway ,442654,3633,1275 CANTON ROAD         ,AKRON,OH,SUMMIT                ,44312,41.0308,-81.4268,999QQB7
45352 103 EAST AVENUE TALLMADGE OH 44278,45352,Speedway ,445984,3671,103 EAST AVENUE          ,TALLMADGE,OH,SUMMIT                ,44278,41.10159,-81.43651,999I0DL
45511 1790 HENDERSON ROAD COLUMBUS OH 43220,45511,Speedway ,272783,9159,1790 HENDERSON ROAD      ,COLUMBUS,OH,FRANKLIN              ,43220,40.0543,-83.0673,999BPOR
45200 120 VIENNA AVENUE NILES OH 44446,45200,Speedway ,445257,1134,120 VIENNA AVENUE        ,NILES,OH,TRUMBULL              ,44446,41.1846,-80.7585,999QT17
45452 225 SOUTH WOOSTER AVENUE DOVER OH 44622,45452,Speedway ,626279,6243,225 SOUTH WOOSTER AVENUE ,DOVER,OH,TUSCARAWAS            ,44622,40.5178,-81.4696,99BQQXM
45361 7745 REYNOLDS ROAD MENTOR OH 44060,45361,Speedway ,177469,3685,7745 REYNOLDS ROAD       ,MENTOR,OH,LAKE                  ,44060,41.6603,-81.3778,99APQDR
45614 420 MAIN STREET DELTA OH 43515,45614,Speedway ,291196,9690,420 MAIN STREET          ,DELTA,OH,FULTON                ,43515,41.5735,-84.0039,9999MTG
45232 1970 CLEVELAND ROAD WOOSTER OH 44691,45232,Speedway ,446199,1200,1970 CLEVELAND ROAD      ,WOOSTER,OH,WAYNE                 ,44691,40.82412,-81.93413,999QSSI
45575 1740 EAST WYANDOT AVENUE UPPER SANDUSKY OH 43351,45575,Speedway ,702396,9361,1740 EAST WYANDOT AVENUE ,UPPER SANDUSKY,OH,WYANDOT               ,43351,40.8358,-83.23822,999BPPM
45277 4815 LIBERTY AVENUE VERMILION OH 44089,45277,Speedway ,151401,3326,4815 LIBERTY AVENUE      ,VERMILION,OH,ERIE                  ,44089,41.4242,-82.3523,999MBS3
45561 117 EAST MAIN STREET NEWARK OH 43055,45561,Speedway ,480267,9312,117 EAST MAIN STREET     ,NEWARK,OH,LICKING               ,43055,40.0586,-82.3975,999LCBC
45506 1434 BETHEL ROAD COLUMBUS OH 43220,45506,Speedway ,272738,9147,1434 BETHEL ROAD         ,COLUMBUS,OH,FRANKLIN              ,43220,40.06417,-83.05741,999BPGV
45360 4000 EAST MARKET STREET WARREN OH 44484,45360,Speedway ,218148,3684,4000 EAST MARKET STREET  ,WARREN,OH,TRUMBULL              ,44484,41.2369,-80.7669,999QPTM
45544 10330 NORTH HIGH STREET LEWIS CENTER OH 43035,45544,Speedway ,446322,9247,10330 NORTH HIGH STREET  ,LEWIS CENTER,OH,DELAWARE              ,43035,40.1378,-83.0173,999MHIY
45300 149 NORTH CHESTNUT STREET JEFFERSON OH 44047,45300,Speedway ,445188,3409,149 NORTH CHESTNUT STREET,JEFFERSON,OH,ASHTABULA             ,44047,41.7422,-80.7696,999QSWF
45553 2510 NORTH HIGH STREET COLUMBUS OH 43202,45553,Speedway ,480253,9281,2510 NORTH HIGH STREET   ,COLUMBUS,OH,FRANKLIN              ,43202,40.0137,-83.0108,999NEJW
45213 747 EAST CENTRAL AVENUE WEST CARROLLTON OH 45449,45213,Speedway ,446121,1165,747 EAST CENTRAL AVENUE  ,WEST CARROLLTON,OH,MONTGOMERY            ,45449,39.6771,-84.2408,999BPNN
45633 3170 MAPLE AVENUE ZANESVILLE OH 43701,45633,Speedway ,218504,9795,3170 MAPLE AVENUE        ,ZANESVILLE,OH,MUSKINGUM             ,43701,39.9797,-82.017,999BPQB
45402 2240 EAST LIVINGSTON AVE BEXLEY OH 43209,45402,Speedway ,442669,5194,2240 EAST LIVINGSTON AVE ,BEXLEY,OH,FRANKLIN              ,43209,39.9483,-82.9377,999QP3G
45399 3860 SOUTH HIGH STREET COLUMBUS OH 43207,45399,Speedway ,442779,5128,3860 SOUTH HIGH STREET   ,COLUMBUS,OH,FRANKLIN              ,43207,39.8827,-83.0003,999LCB9
45429 3605 WEST BROAD STREET COLUMBUS OH 43228,45429,Speedway ,442755,5289,3605 WEST BROAD STREET   ,COLUMBUS,OH,FRANKLIN              ,43228,39.9537,-83.097,99AVN9Z
45532 439 COUNTY ROAD 406 SOUTH POINT OH 45680,45532,Speedway ,480233,9213,439 COUNTY ROAD 406      ,SOUTH POINT,OH,LAWRENCE              ,45680,38.4199,-82.5043,99B5A2P
45394 737 WEST CHURCH STREET NEWARK OH 43055,45394,Speedway ,445255,5108,737 WEST CHURCH STREET   ,NEWARK,OH,LICKING               ,43055,40.0576,-82.4297,999QQ1S
45569 5735 MAPLE CANYON AVENUE COLUMBUS OH 43229,45569,Speedway ,791708,9340,5735 MAPLE CANYON AVENUE ,COLUMBUS,OH,FRANKLIN              ,43229,40.0858,-82.9605,999MCTW
45218 1171 NORTH BROAD STREET FAIRBORN OH 45324,45218,Speedway ,445099,1172,1171 NORTH BROAD STREET  ,FAIRBORN,OH,GREENE                ,45324,39.8341,-84.0154,999BPMF
45590 12006 MONTGOMERY ROAD CINCINNATI OH 45249,45590,Speedway ,194501,9575,12006 MONTGOMERY ROAD    ,CINCINNATI,OH,HAMILTON              ,45249,39.2876,-84.3047,99ASLQA
45223 247 WEST MAIN STREET HILLSBORO OH 45133,45223,Speedway ,445181,1189,247 WEST MAIN STREET     ,HILLSBORO,OH,HIGHLAND              ,45133,39.2026,-83.6164,999BPMQ
45387 1143 STATE ROUTE 131 MILFORD OH 45150,45387,Speedway ,445240,5074,1143 STATE ROUTE 131     ,MILFORD,OH,CLERMONT              ,45150,39.1749,-84.2359,99AQLQN
45234 301 XENIA AVENUE YELLOW SPRINGS OH 45387,45234,Speedway ,446204,1202,301 XENIA AVENUE         ,YELLOW SPRINGS,OH,GREENE                ,45387,39.8044,-83.8897,999BPMZ
45258 4790 EAST BROAD STREET WHITEHALL OH 43213,45258,Speedway ,810379,1502,4790 EAST BROAD STREET   ,WHITEHALL,OH,FRANKLIN              ,43213,39.9766,-82.8734,99BNCLC
45530 1280 NORTH 21ST STREET NEWARK OH 43055,45530,Speedway ,322636,9194,1280 NORTH 21ST STREET   ,NEWARK,OH,LICKING               ,43055,40.08309,-82.42722,999GXES
45320 6757 AIRPORT HIGHWAY HOLLAND OH 43528,45320,Speedway ,445183,3605,6757 AIRPORT HIGHWAY     ,HOLLAND,OH,LUCAS                 ,43528,41.6118,-83.7028,99C1G23
45512 3980 EVERHARD ROAD NW CANTON OH 44709,45512,Speedway ,446291,9161,3980 EVERHARD ROAD NW    ,CANTON,OH,STARK                 ,44709,40.8591,-81.4221,999IO5V
45431 6500 WEST CENTRAL AVENUE TOLEDO OH 43617,45431,Speedway ,446028,5299,6500 WEST CENTRAL AVENUE ,TOLEDO,OH,LUCAS                 ,43617,41.6757,-83.6981,999NGZQ
45568 2965 EAST MAIN STREET COLUMBUS OH 43209,45568,Speedway ,791674,9339,2965 EAST MAIN STREET    ,COLUMBUS,OH,FRANKLIN              ,43209,39.9566,-82.9193,9999MYI
45591 4425 MONTGOMERY ROAD NORWOOD OH 45212,45591,Speedway ,194462,9576,4425 MONTGOMERY ROAD     ,NORWOOD,OH,HAMILTON              ,45212,39.1583,-84.4579,999QRAN
45304 2309 NORTH RIDGE ROAD E ASHTABULA OH 44004,45304,Speedway ,218118,3521,2309 NORTH RIDGE ROAD E  ,ASHTABULA,OH,ASHTABULA             ,44004,41.87607,-80.76563,999X3W8
45503 461 WEST MAIN STREET LOUISVILLE OH 44641,45503,Speedway ,63575,9053,461 WEST MAIN STREET     ,LOUISVILLE,OH,STARK                 ,44641,40.83775,-81.26315,999ID9G
46160 5500 AIRWAY ROAD DAYTON OH 45431,46160,Speedway ,442791,1032,5500 AIRWAY ROAD         ,DAYTON,OH,GREENE                ,45431,39.7712,-84.1083,999BPN4
45293 9254 STATE ROUTE 43 STREETSBORO OH 44241,45293,Speedway ,218093,3390,9254 STATE ROUTE 43      ,STREETSBORO,OH,PORTAGE               ,44241,41.2432,-81.3451,999BPNL
45348 317 HIGHLAND ROAD EAST MACEDONIA OH 44056,45348,Speedway ,177461,3661,317 HIGHLAND ROAD EAST   ,MACEDONIA,OH,SUMMIT                ,44056,41.2994,-81.5137,999QQB0
45390 6498 OLD TROY PIKE HUBER HEIGHTS OH 45424,45390,Speedway ,445184,5081,6498 OLD TROY PIKE       ,HUBER HEIGHTS,OH,MONTGOMERY            ,45424,39.8479,-84.1388,999X3VU
45210 3612 BROADWAY GROVE CITY OH 43123,45210,Speedway ,445169,1158,3612 BROADWAY            ,GROVE CITY,OH,FRANKLIN              ,43123,39.8901,-83.0865,99C3J6B
46735 3104 ROOSEVELT BOULEVARD MIDDLETOWN OH 45044,46735,Speedway ,445237,5276,3104 ROOSEVELT BOULEVARD ,MIDDLETOWN,OH,BUTLER                ,45044,39.50091,-84.37445,99ASK9G
45458 6562 MANCHESTER ROAD MIDDLETOWN OH 45042,45458,Speedway ,311136,6336,6562 MANCHESTER ROAD     ,MIDDLETOWN,OH,BUTLER                ,45042,39.5245,-84.3255,999BPMB
45392 5575 BIGGER ROAD KETTERING OH 45440,45392,Speedway ,445192,5091,5575 BIGGER ROAD         ,KETTERING,OH,MONTGOMERY            ,45440,39.6614,-84.1272,999QSSF
47200 9850 CINCINNATI COLUMBUS CINCINNATI OH 45241,47200,Speedway ,446296,9781,9850 CINCINNATI COLUMBUS ,CINCINNATI,OH,HAMILTON              ,45241,39.3058,-84.3858,999EXFL
45545 807 WASHINGTON BOULEVARD BELPRE OH 45714,45545,Speedway ,151357,9260,807 WASHINGTON BOULEVARD ,BELPRE,OH,WASHINGTON            ,45714,39.2733,-81.5793,999BPHK
45288 806 WEST LIBERTY STREET HUBBARD OH 44425,45288,Speedway ,151413,3377,806 WEST LIBERTY STREET  ,HUBBARD,OH,TRUMBULL              ,44425,41.1565,-80.5825,999QPU1
45188 3201 WILMINGTON PIKE KETTERING OH 45429,45188,Speedway ,445193,1036,3201 WILMINGTON PIKE     ,KETTERING,OH,MONTGOMERY            ,45429,39.6995,-84.1419,99AQOB3
45455 1260 WEST HIGH AVENUE NEW PHILADELPHIA OH 44663,45455,Speedway ,626263,6246,1260 WEST HIGH AVENUE    ,NEW PHILADELPHIA,OH,TUSCARAWAS            ,44663,40.4929,-81.4732,99B1N3X
45310 649 EAST MIDLOTHIAN BLVD YOUNGSTOWN OH 44502,45310,Speedway ,442704,3540,649 EAST MIDLOTHIAN BLVD ,YOUNGSTOWN,OH,MAHONING              ,44502,41.0607,-80.6425,999DR0N
45272 746 HARDING WAY WEST GALION OH 44833,45272,Speedway ,1436908,3187,746 HARDING WAY WEST     ,GALION,OH,CRAWFORD              ,44833,40.73435,-82.80179,999BPO8
45298 548 SOUTH MECCA STREET CORTLAND OH 44410,45298,Speedway ,442785,3407,548 SOUTH MECCA STREET   ,CORTLAND,OH,TRUMBULL              ,44410,41.3204,-80.7311,999QP4T
45456 1618 SOUTH WASHINGTON ST MILLERSBURG OH 44654,45456,Speedway ,626291,6247,1618 SOUTH WASHINGTON ST ,MILLERSBURG,OH,HOLMES                ,44654,40.5339,-81.9175,99AXYFI
45216 624 SOUTH 30TH STREET HEATH OH 43056,45216,Speedway ,445179,1170,624 SOUTH 30TH STREET    ,HEATH,OH,LICKING               ,43056,40.0352,-82.4426,999QSPB
45557 3239 MEDINA ROAD MEDINA OH 44256,45557,Speedway ,503227,9294,3239 MEDINA ROAD         ,MEDINA,OH,MEDINA                ,44256,41.1367,-81.8043,999GXEQ
45353 5211 MANCHESTER ROAD NEW FRANKLIN OH 44319,45353,Speedway ,151448,3672,5211 MANCHESTER ROAD     ,NEW FRANKLIN,OH,SUMMIT                ,44319,40.9609,-81.5658,99ATM0B
45342 4661 WOODVILLE ROAD NORTHWOOD OH 43619,45342,Speedway ,138657,3643,4661 WOODVILLE ROAD      ,NORTHWOOD,OH,WOOD                  ,43619,41.6004,-83.4618,99ASJUI
45311 1 NORTH MERIDIAN ROAD YOUNGSTOWN OH 44509,45311,Speedway ,446211,3542,1 NORTH MERIDIAN ROAD    ,YOUNGSTOWN,OH,MAHONING              ,44509,41.1032,-80.7108,999QSP4
45206 2920 12TH STREET NW CANTON OH 44708,45206,Speedway ,177653,1153,2920 12TH STREET NW      ,CANTON,OH,STARK                 ,44708,40.8098,-81.4065,999X229
45324 100 NORTH DIXIE HIGHWAY CRIDERSVILLE OH 45806,45324,Speedway ,151454,3612,100 NORTH DIXIE HIGHWAY  ,CRIDERSVILLE,OH,AUGLAIZE              ,45806,40.6547,-84.1339,999X0G8
45438 5695 RAPID RUN ROAD CINCINNATI OH 45238,45438,Speedway ,442751,5409,5695 RAPID RUN ROAD      ,CINCINNATI,OH,HAMILTON              ,45238,39.1116,-84.6351,999QSEG
45343 1161 NORTH RIDGE ROAD E LORAIN OH 44055,45343,Speedway ,151436,3648,1161 NORTH RIDGE ROAD E  ,LORAIN,OH,LORAIN                ,44055,41.4183,-82.1538,999QQB4
45624 1055 SOUTH HAMILTON ROAD COLUMBUS OH 43227,45624,Speedway ,60345,9744,1055 SOUTH HAMILTON ROAD ,COLUMBUS,OH,FRANKLIN              ,43227,39.9546,-82.8772,999LCBH
45459 202 SOUTH MAIN STREET DELPHOS OH 45833,45459,Speedway ,445080,6345,202 SOUTH MAIN STREET    ,DELPHOS,OH,ALLEN                 ,45833,40.8414,-84.3395,99AU24J
45296 1100 WEST MAPLE STREET HARTVILLE OH 44632,45296,Speedway ,445177,3403,1100 WEST MAPLE STREET   ,HARTVILLE,OH,STARK                 ,44632,40.9683,-81.3489,999QQBO
45323 1410 ELIDA ROAD LIMA OH 45805,45323,Speedway ,151453,3610,1410 ELIDA ROAD          ,LIMA,OH,ALLEN                 ,45805,40.7534,-84.1284,99APT7U
45453 1042 NORTH TUSCARAWAS AVE DOVER OH 44622,45453,Speedway ,626278,6244,1042 NORTH TUSCARAWAS AVE,DOVER,OH,TUSCARAWAS            ,44622,40.5267,-81.4894,99BLYBV
45330 243 NORTH SANDUSKY STREET TIFFIN OH 44883,45330,Speedway ,138646,3620,243 NORTH SANDUSKY STREET,TIFFIN,OH,SENECA                ,44883,41.1257,-83.1788,999BPO2
45341 939 DIXIE HIGHWAY ROSSFORD OH 43460,45341,Speedway ,177456,3642,939 DIXIE HIGHWAY        ,ROSSFORD,OH,WOOD                  ,43460,41.6053,-83.5625,9999MXU
45388 716 MAIN STREET MILFORD OH 45150,45388,Speedway ,445239,5075,716 MAIN STREET          ,MILFORD,OH,CLERMONT              ,45150,39.1768,-84.2858,999BPLX
45214 229 EAST NATIONAL ROAD VANDALIA OH 45377,45214,Speedway ,446113,1167,229 EAST NATIONAL ROAD   ,VANDALIA,OH,MONTGOMERY            ,45377,39.8913,-84.1952,999CKN5
45259 904 SCOTT STREET NAPOLEON OH 43545,45259,Speedway ,445246,1505,904 SCOTT STREET         ,NAPOLEON,OH,HENRY                 ,43545,41.39348,-84.12812,999QSPI
45185 24700 MILES RD. BEDFORD HEIGHTS OH 44146,45185,Speedway ,7836568,1031,24700 MILES RD. BEDFORD HEIGHTS,BEDFORD HEIGHTS,OH,Cuyahoga,44146,41.42381,-81.50388,99D69O0
45253 9780 OLDE 8 ROAD NORTHFIELD OH 44067,45253,Speedway ,810364,1400,9780 OLDE 8 ROAD NORTHFIELD,NORTHFIELD,OH,Rice,44067,41.3259,-81.537,999QR9B
45264 755 EAST AURORA ROAD MACEDONIA OH 44056,45264,Speedway ,2177633,1848,EAST AURORA ROAD MACEDONIA,MACEDONIA,OH,Summit,44056,41.3144,-81.51177,99C1G4Y
45275 27939 CHAGRIN BOULEVARD WOODMERE OH 44122,45275,Speedway ,442753,3321,CHAGRIN BOULEVARD WOODMERE,WOODMERE,OH,Cuyahoga,44122,41.4626,-81.481,999K72F
45278 2609 HARVARD AVENUE NEWBURGH HEIGHTS OH 44105,45278,Speedway ,445256,3328,2609 HARVARD AVENUE NEWBURGH HEIGHTS,NEWBURGH HEIGHTS,OH,Cuyahoga,44105,41.44806,-81.66937,9999MGM
45279 25300 AURORA ROAD BEDFORD HEIGHTS OH 44146,45279,Speedway ,177442,3336,25300 AURORA ROAD BEDFORD HEIGHTS,BEDFORD HEIGHTS,OH,Cuyahoga,44146,41.41,-81.5005,999QQBU
45280 2202 BROADVIEW ROAD CLEVELAND OH 44109,45280,Speedway ,177444,3341,2202 BROADVIEW ROAD CLEVELAND,CLEVELAND,OH,Cuyahoga,44109,41.4386,-81.6997,999QQBT
45299 9191 ROYALTON ROAD NORTH ROYALTON OH 44133,45299,Speedway ,445245,3408,9191 ROYALTON ROAD NORTH ROYALTON OH,NORTH ROYALTON,OH,Cuyahoga,44133,41.3127,-81.7543,999QS6Q
45307 5810 STATE ROAD PARMA OH 44134,45307,Speedway ,445265,3530,5810 STATE ROAD PARMA,PARMA,OH,Cuyahoga,44134,41.4045,-81.7106,999QSR1
45309 6731 PEARL ROAD PARMA HEIGHTS OH 44130,45309,Speedway ,225513,3537,6731 PEARL ROAD PARMA HEIGHTS,PARMA HEIGHTS,OH,Cuyahoga,44130,41.3803,-81.7843,99D5JAC
45355 17650 BAGLEY ROAD MIDDLEBURG HEIGHTS OH 44130,45355,Speedway ,445235,3677,17650 BAGLEY ROAD MIDDLEBURG HEIGHTS,MIDDLEBURG HEIGHTS,OH,Cuyahoga,44130,41.372,-81.82357,999NGEQ
45364 1555 PEARL ROAD BRUNSWICK OH 44212,45364,Speedway ,442709,3691,1555 PEARL ROAD BRUNSWICK,BRUNSWICK,OH,Medina,44212,41.233,-81.841,999QPFD
45367 630 COLUMBIA ROAD BAY VILLAGE OH 44140,45367,Speedway ,218172,3697,630 COLUMBIA ROAD BAY VILLAGE OH 44140,BAY VILLAGE,OH,Cuyahoga,44140,41.4775,-81.9019,
45375 3220 CENTER ROAD BRUNSWICK OH 44212,45375,Speedway ,1641192,3999,3220 CENTER ROAD BRUNSWICK OH 44212,BRUNSWICK,OH,Medina,44212,41.2381,-81.8018,999BZFG
45377 4549 MAYFIELD ROAD SOUTH EUCLID OH 44121,45377,Speedway ,796282,4044,4549 MAYFIELD ROAD SOUTH EUCLID OH 44121,SOUTH EUCLID,OH,Cuyahoga,44121,41.5199,-81.5157,999LGZC
45378 16400 ROCKSIDE ROAD MAPLE HEIGHTS OH 44137,45378,Speedway ,1436894,4046,16400 ROCKSIDE ROAD MAPLE HEIGHTS OH 44137,MAPLE HEIGHTS,OH,Cuyahoga,44137,41.402,-81.5663,99APASN
45442 10301 BROOKPARK ROAD PARMA OH 44130,45442,Speedway ,810666,5417,10301 BROOKPARK ROAD PARMA OH 44130,PARMA,OH,Cuyahoga,44130,41.4181,-81.7571,99AV262
45481 393 E LOCUST ST WILMINGTON OH 45177,45481,Speedway ,300578,8021,393 E LOCUST ST WILMINGTON OH 45177,WILMINGTON,OH,Clinton,45177,39.44657,-83.82176,99CFNU5
45483 880 N ROCKY RIVER DR BEREA OH 44017,45483,Speedway ,7442062,8133,880 N ROCKY RIVER DR BEREA OH 44017,BEREA,OH,Cuyahoga,44017,41.38899,-81.85206,99CTYMO
45485 1511 WARREN ROAD LAKEWOOD OH 44107,45485,Speedway ,810754,8339,1511 WARREN ROAD LAKEWOOD OH 44107,LAKEWOOD,OH,Cuyahoga,44107,41.48213,-81.7993,
45496 5122 TURNEY ROAD GARFIELD HEIGHTS OH 44125,45496,Speedway ,974922,8605,5122 TURNEY ROAD GARFIELD HEIGHTS OH 44125,GARFIELD HEIGHTS,OH,Cuyahoga,44125,41.4219,-81.6098,99AP9Z5
45499 4280 WEST 150TH STREET CLEVELAND OH 44135,45499,Speedway ,1541874,8641,4280 WEST 150TH STREET CLEVELAND OH 44135,CLEVELAND,OH,Cuyahoga,44135,41.4378,-81.8015,999HZNR
45504 24046 LORAIN ROAD NORTH OLMSTED OH 44070,45504,Speedway ,962344,9084,24046 LORAIN ROAD NORTH OLMSTED OH 44070,NORTH OLMSTED,OH,Cuyahoga,44070,41.4301,-81.8887,999I5MR
45519 7250 BROOKPARK ROAD CLEVELAND OH 44129,45519,Speedway ,272822,9172,7250 BROOKPARK ROAD CLEVELAND OH 44129,CLEVELAND,OH,Cuyahoga,44129,41.4188,-81.7339,99BQ67B
45531 7320 PEARL ROAD MIDDLEBURG HEIGHTS OH 44130,45531,Speedway ,446317,9196,7320 PEARL ROAD MIDDLEBURG HEIGHTS OH 44130,MIDDLEBURG HEIGHTS,OH,Cuyahoga,44130,41.3668,-81.8061,99APAQY
45567 15520 MUNN ROAD CLEVELAND OH 44111,45567,Speedway ,802675,9338,15520 MUNN ROAD CLEVELAND OH 44111,CLEVELAND,OH,#N/A,44111,41.459,-81.8052,999QRSF
45572 14458 CEDAR ROAD UNIVERSITY HEIGHTS OH 44121,45572,Speedway ,803052,9344,14458 CEDAR ROAD UNIVERSITY HEIGHTS OH 44121,UNIVERSITY HEIGHTS,OH,Cuyahoga,44121,41.5012,-81.5199,99APGYL
45598 900 SOUTH SOUTH STREET WILMINGTON OH 45177,45598,Speedway ,218526,9599,900 SOUTH SOUTH STREET WILMINGTON OH 45177,WILMINGTON,OH,Clinton ,45177,39.4337,-83.8302,999QQ76
